{"type":"FeatureCollection","features":[{"type":"Feature","geometry":{"type":"Point","coordinates":[-98.4133,45.4558]},"properties":{"station":"KABR","weeks":[950.9,1091.0,917.6,949.5,880.8,914.1,1137.6,1190.8,1678.0,2003.1,6815.6,18844.8,18434.0,22434.8,29619.7,41639.5,106542.6,179420.0,190980.0,279882.0,104461.5,37933.2,20841.5,12696.8,12063.8,13322.1,15250.2,24524.5,33104.2,36955.6,35139.6,41456.4,48055.8,60248.5,47523.2,64573.8,86189.6,123199.0,192687.5,124629.0,111774.5,82190.0,30659.8,26676.0,15038.8,5899.3,4743.4,2633.1,1827.1,1586.2,1350.4,946.7],"peak":279882.0,"years":31,"autumn_shift_days_per_decade":-1.55,"trend_years":31}},{"type":"Feature","geometry":{"type":"Point","coordinates":[-106.8239,35.1497]},"properties":{"station":"KABX","weeks":[493.8,485.9,562.2,524.4,490.0,655.2,644.6,864.9,1236.7,2037.2,1868.3,2468.8,2271.3,3391.5,9588.6,10953.8,16648.6,50751.8,52524.0,52602.4,24354.7,19360.9,14081.3,9720.6,9776.7,6340.5,6358.1,7525.4,8985.5,18007.8,24927.3,36271.8,56254.4,71668.5,114040.5,103621.4,105957.0,104223.0,88079.1,59456.8,44909.4,23101.2,10895.7,3829.8,1987.3,897.9,682.3,521.7,479.5,524.0,520.9,513.4],"peak":114040.5,"years":31,"autumn_shift_days_per_decade":-2.28,"trend_years":30}},{"type":"Feature","geometry":{"type":"Point","coordinates":[-77.0074,36.9841]},"properties":{"station":"KAKQ","weeks":[1746.3,1536.8,1354.7,1502.1,1516.7,1816.7,1653.5,2234.9,3519.7,6502.4,4932.7,9901.3,12264.1,19827.0,47406.9,74216.9,91349.8,154129.5,155750.0,83151.6,24672.9,11566.0,8629.2,8282.6,7201.6,6757.6,5929.3,6706.2,9158.7,10216.4,14297.2,18851.9,29441.6,51954.6,65615.5,83808.6,135647.0,129999.0,119475.0,117075.0,87355.0,95261.6,104885.4,74773.2,29834.1,19566.7,7305.1,4337.9,3004.0,2151.7,1989.4,1984.2],"peak":155750.0,"years":31,"autumn_shift_days_per_decade":-1.09,"trend_years":30}},{"type":"Feature","geometry":{"type":"Point","coordinates":[-101.7093,35.2333]},"properties":{"station":"KAMA","weeks":[5207.0,4915.8,5161.5,4923.8,5094.8,4657.9,5462.3,6341.0,8485.8,7787.6,11209.3,12842.9,17371.4,16967.9,35969.9,72973.2,93714.8,169142.0,152815.0,101821.5,47579.8,40934.3,31375.2,28928.7,24072.9,26587.3,23064.3,22396.9,28749.4,30920.0,31701.7,32723.6,41909.9,43956.2,56870.4,52081.3,69822.8,113649.0,148285.5,109155.5,116212.5,61617.4,34269.9,32238.5,17250.1,11828.2,7537.6,6266.8,4904.8,6930.1,6464.0,4716.0],"peak":169142.0,"years":31,"autumn_shift_days_per_decade":-0.17,"trend_years":30}},{"type":"Feature","geometry":{"type":"Point","coordinates":[-80.4127,25.6111]},"properties":{"station":"KAMX","weeks":[2301.6,2677.1,2389.4,2659.6,2784.3,2922.3,3919.9,5115.3,6413.8,5045.7,5155.7,6011.2,9810.8,11173.8,19212.9,29462.1,65872.4,58127.4,41195.7,14392.6,6116.1,3509.8,3854.8,3624.8,3575.1,3316.9,3536.7,3071.3,3780.0,4238.0,5477.3,8215.5,9187.5,17215.1,25618.3,32952.4,47806.8,74510.9,81244.1,104670.0,165324.0,89572.2,33463.2,18152.8,9067.7,7506.0,5559.7,3433.9,3229.6,2998.8,2414.6,2351.4],"peak":165324.0,"years":31,"autumn_shift_days_per_decade":-0.16,"trend_years":31}},{"type":"Feature","geometry":{"type":"Point","coordinates":[-84.7195,44.9064]},"properties":{"station":"KAPX","weeks":[443.4,515.1,420.0,854.1,339.1,528.3,456.9,300.5,187.6,230.0,405.1,453.9,1990.6,2220.6,4866.2,6439.7,12130.6,28523.2,38963.8,53931.9,39302.9,12899.3,6120.5,4252.6,4834.7,3658.3,3230.1,4279.6,6395.8,7687.9,8983.7,7622.5,12016.2,16779.9,31458.1,76011.9,54471.0,47092.1,41311.8,31474.2,22708.8,17280.8,5737.8,2491.8,1467.6,984.8,701.5,639.5,724.2,461.6,425.6,578.1],"peak":76011.9,"years":30,"autumn_shift_days_per_decade":-1.19,"trend_years":30}},{"type":"Feature","geometry":{"type":"Point","coordinates":[-91.1911,43.8228]},"properties":{"station":"KARX","weeks":[597.6,756.5,689.1,606.8,574.7,466.7,417.0,667.9,628.9,1039.8,3361.2,3282.2,20994.0,16858.0,45193.8,41740.7,67873.1,207456.0,296363.5,379063.0,209580.0,46064.9,19762.6,10681.5,9581.1,8191.3,11251.3,14127.7,19247.9,25553.9,28582.8,32664.3,37093.9,64316.5,148169.5,172921.0,179197.0,143476.0,250538.0,110580.0,165720.0,93349.7,19866.6,20180.6,12489.2,7610.5,3404.0,2279.8,1263.3,803.7,757.0,738.7],"peak":379063.0,"years":30,"autumn_shift_days_per_decade":-0.49,"trend_years":30}},{"type":"Feature","geometry":{"type":"Point","coordinates":[-122.4957,48.1946]},"properties":{"station":"KATX","weeks":[1687.6,1825.5,1734.7,1298.0,1189.1,1505.7,1368.3,2100.8,2255.4,4044.6,5369.7,12069.0,7471.5,17586.0,26635.5,53726.2,57328.6,78500.4,133303.0,84125.4,73949.1,26919.0,5855.7,2848.6,2475.0,2134.3,2084.8,2403.3,3411.4,8733.1,14437.6,15957.8,16072.0,26304.2,43450.6,78233.5,88730.1,74608.7,104610.0,74119.8,38892.5,20246.0,13817.8,6938.3,4192.4,4588.6,2691.7,2695.5,1726.6,2071.9,2401.1,1516.3],"peak":133303.0,"years":31,"autumn_shift_days_per_decade":-0.01,"trend_years":30}},{"type":"Feature","geometry":{"type":"Point","coordinates":[-121.6316,39.4956]},"properties":{"station":"KBBX","weeks":[13609.1,13091.4,14316.0,13203.6,9866.4,7915.2,12863.5,12504.0,15185.4,26675.5,28819.0,37907.3,49252.1,80111.7,221111.5,456536.5,353821.0,381165.0,464143.0,269424.5,139762.0,77757.0,42394.6,38081.8,25925.9,21415.7,22635.7,25428.0,32325.4,41107.6,53784.9,65452.9,65339.0,44444.7,59213.3,78595.1,100315.4,173819.5,175607.5,221836.0,132710.0,112010.5,55486.2,49615.4,40970.9,39620.2,39972.4,33111.2,35681.4,36647.4,24832.6,15657.9],"peak":464143.0,"years":25,"autumn_shift_days_per_decade":-0.94,"trend_years":22}},{"type":"Feature","geometry":{"type":"Point","coordinates":[-75.9847,42.1997]},"properties":{"station":"KBGM","weeks":[1228.0,1448.7,996.7,1481.8,1089.0,725.6,967.0,1157.0,1775.1,2912.3,3424.3,3916.9,9767.1,12593.8,24451.7,12270.9,22031.5,57180.8,96417.7,121895.0,73406.8,24813.1,5689.7,3049.8,2834.1,3285.7,4894.9,6401.7,9298.7,9568.9,11654.6,17990.0,27024.2,41337.3,68077.4,73886.0,154465.0,173648.0,142448.0,105996.4,96585.0,50672.2,50727.9,18625.9,15057.5,4722.8,3827.2,2657.0,1500.7,1469.9,2048.9,1609.6],"peak":173648.0,"years":31,"autumn_shift_days_per_decade":-0.94,"trend_years":31}},{"type":"Feature","geometry":{"type":"Point","coordinates":[-124.2922,40.4986]},"properties":{"station":"KBHX","weeks":[634.9,622.2,387.2,628.0,909.8,725.3,1400.2,883.6,1361.5,1765.9,1782.9,2044.4,1132.5,2899.0,1425.9,2610.8,3805.2,3552.4,4352.2,3454.1,2157.4,1991.5,834.3,653.2,848.5,727.4,638.4,712.9,850.8,822.1,1123.9,2318.4,3596.1,4116.6,5785.4,10760.9,17226.0,22466.4,17674.2,11835.2,7407.9,5632.3,5472.7,2088.1,2153.3,1994.7,2058.7,1042.1,881.6,1020.2,1130.8,1161.3],"peak":22466.4,"years":31,"autumn_shift_days_per_decade":-1.48,"trend_years":24}},{"type":"Feature","geometry":{"type":"Point","coordinates":[-100.7605,46.7708]},"properties":{"station":"KBIS","weeks":[1954.8,1623.9,1885.5,1568.3,1606.0,1606.6,1484.0,1835.2,1931.0,2156.4,3426.2,8071.7,6960.6,12761.4,19053.3,35456.1,84423.0,209795.0,248979.0,422656.0,132415.5,42004.3,21431.5,14195.8,13072.6,19491.8,21161.4,27632.8,38249.1,47818.9,41106.7,42830.7,71884.5,57650.7,91182.0,92736.1,177905.0,175619.8,267408.0,99064.6,84687.7,64865.1,26336.4,11207.3,4190.4,3917.4,3332.3,2564.5,2445.1,1911.4,2455.5,1917.4],"peak":422656.0,"years":31,"autumn_shift_days_per_decade":-0.13,"trend_years":31}},{"type":"Feature","geometry":{"type":"Point","coordinates":[-108.6068,45.8538]},"properties":{"station":"KBLX","weeks":[647.1,580.6,535.4,531.7,392.7,327.1,515.7,479.7,594.5,793.0,1097.8,1301.7,1854.7,2412.2,2979.8,3733.7,4203.0,15047.1,21242.4,41871.2,20217.9,14287.6,8085.2,7661.8,6520.7,6746.1,6413.8,6496.8,10820.7,11026.9,11837.8,11631.8,16270.1,20080.0,41961.5,63319.2,64370.2,43633.1,20601.7,11551.4,7549.1,5451.4,2565.3,1649.0,1116.5,1257.1,1044.2,764.7,616.2,559.9,649.5,531.3],"peak":64370.2,"years":30,"autumn_shift_days_per_decade":-0.07,"trend_years":30}},{"type":"Feature","geometry":{"type":"Point","coordinates":[-86.7702,33.1724]},"properties":{"station":"KBMX","weeks":[2488.8,2167.9,2120.8,1928.3,1510.3,2836.8,2393.0,5455.2,5651.2,11756.0,9893.7,21624.7,31859.1,57454.4,83041.6,238452.7,363199.0,319660.5,152244.5,63162.2,19933.3,11750.7,9739.4,8395.9,8137.7,9021.9,10501.7,12051.4,13340.1,20865.0,27331.1,36263.8,48153.8,103983.0,103001.5,174163.0,198772.2,180695.0,290108.0,214332.0,234310.5,177182.0,133049.0,93908.6,56735.3,34182.3,17926.9,8327.8,5323.5,3065.9,3487.8,2658.9],"peak":363199.0,"years":31,"autumn_shift_days_per_decade":-1.04,"trend_years":31}},{"type":"Feature","geometry":{"type":"Point","coordinates":[-71.1369,41.9558]},"properties":{"station":"KBOX","weeks":[1590.3,1776.6,1810.2,1208.2,797.9,1185.3,912.2,1382.9,1605.1,2373.8,3733.7,4367.5,5620.9,7105.7,8631.7,8438.3,10173.0,22114.2,21349.7,52970.9,31591.2,11545.3,4996.7,3629.4,3628.0,4521.4,4833.3,4739.4,6766.0,7081.9,7756.9,8691.4,11110.7,13920.1,13918.9,19107.9,24643.5,24968.0,27873.1,41185.7,34592.6,33131.0,31717.0,18247.2,13232.2,12028.7,4947.5,3734.0,2808.1,2368.7,1926.4,1895.6],"peak":52970.9,"years":31,"autumn_shift_days_per_decade":0.19,"trend_years":30}},{"type":"Feature","geometry":{"type":"Point","coordinates":[-97.419,25.916]},"properties":{"station":"KBRO","weeks":[6990.6,6675.3,6393.3,6189.1,6415.2,8924.8,7961.3,10761.4,14057.1,18910.4,28820.1,52371.1,76310.0,111327.5,210220.5,404109.5,539571.5,566197.5,335267.0,320854.0,96701.8,38488.9,26633.1,25801.2,29440.4,31600.1,30123.4,29389.0,27461.1,29359.8,34587.6,32976.5,41069.1,70384.5,113414.0,165428.0,183126.0,126467.0,175594.0,104570.0,175452.5,169560.5,125595.0,52571.0,45440.8,35728.6,22393.8,18882.8,13346.8,11181.2,9833.0,10713.1],"peak":566197.5,"years":31,"autumn_shift_days_per_decade":-1.33,"trend_years":31}},{"type":"Feature","geometry":{"type":"Point","coordinates":[-78.7368,42.9488]},"properties":{"station":"KBUF","weeks":[2266.8,2342.8,1966.5,1981.0,1758.9,2125.3,2237.2,2472.1,1714.2,2424.1,4467.0,6008.9,8380.8,8151.4,15757.8,15849.9,21554.3,78175.9,111821.0,160358.2,110041.0,27162.5,13719.8,6613.7,7931.7,7404.6,7596.7,9159.5,8661.0,9152.0,9343.2,10687.7,14517.1,17781.4,28401.3,46948.6,78183.4,60573.2,55994.1,43408.6,56811.7,20245.7,25285.8,11879.8,9692.5,5121.6,3785.2,2902.4,2634.6,2229.1,2314.4,1846.1],"peak":160358.2,"years":30,"autumn_shift_days_per_decade":-1.74,"trend_years":29}},{"type":"Feature","geometry":{"type":"Point","coordinates":[-81.7032,24.5975]},"properties":{"station":"KBYX","weeks":[807.8,1201.3,935.6,989.5,892.9,903.0,1016.6,1103.4,1646.8,2887.9,2860.1,3335.3,5595.6,6110.1,11786.2,12294.1,32619.6,21224.1,10967.2,2586.7,1151.1,494.3,643.5,541.9,606.0,547.9,539.5,581.7,738.5,839.9,1078.6,1778.2,2330.4,4117.3,5229.7,9211.1,11037.1,14627.0,18706.4,29147.2,33540.8,26884.3,6762.8,5347.5,2658.3,1863.4,1393.1,1400.3,1044.8,990.4,837.3,715.1],"peak":33540.8,"years":30,"autumn_shift_days_per_decade":-0.72,"trend_years":30}},{"type":"Feature","geometry":{"type":"Point","coordinates":[-81.1183,33.9487]},"properties":{"station":"KCAE","weeks":[3603.1,3206.6,2839.6,3253.1,4029.8,4237.2,4177.5,7836.6,9836.7,11969.1,15345.5,16042.0,34355.1,60314.4,87656.0,148331.5,239908.5,292443.0,190796.0,81579.9,29146.8,14207.1,12741.8,11380.6,9841.5,11023.3,11530.3,15611.5,19541.1,21191.8,30239.5,32202.7,43981.8,65498.9,91324.3,119680.0,151614.0,191232.0,266151.0,243565.0,220120.0,155911.0,144610.0,119555.0,71436.4,30375.1,16890.3,8351.5,4230.4,3636.5,3671.4,2832.8],"peak":292443.0,"years":31,"autumn_shift_days_per_decade":-0.36,"trend_years":31}},{"type":"Feature","geometry":{"type":"Point","coordinates":[-67.8064,46.0393]},"properties":{"station":"KCBW","weeks":[438.0,665.4,480.4,489.5,451.4,370.0,517.4,436.7,428.9,519.8,428.8,501.5,825.4,1864.6,4254.3,6999.5,5342.6,13963.2,14728.2,33486.9,62010.7,33107.3,6264.1,2770.2,1913.0,2030.0,2264.8,3385.4,5307.2,5249.5,8171.3,12800.2,24173.3,38621.3,39342.0,47095.6,82665.7,67466.8,62997.9,50176.6,36984.9,14704.0,8421.3,4032.6,2443.1,1542.0,944.3,983.4,708.6,772.4,795.7,598.0],"peak":82665.7,"years":30,"autumn_shift_days_per_decade":-2.97,"trend_years":29}},{"type":"Feature","geometry":{"type":"Point","coordinates":[-116.236,43.4902]},"properties":{"station":"KCBX","weeks":[1264.0,1400.6,1247.8,1033.0,1227.0,971.0,1517.6,1814.1,2044.6,3511.0,9708.7,8914.5,3304.8,5760.4,7332.8,11279.0,18255.1,24874.0,32668.1,40867.2,19818.6,18616.5,11100.2,7985.1,6180.1,7319.7,5933.8,5910.6,9502.0,13255.8,22124.7,26811.0,34720.2,45966.3,80688.7,103135.0,89113.4,121806.0,95889.9,79928.2,43102.9,21267.1,7892.9,5853.3,3361.0,2603.7,1971.1,1600.7,1531.2,1690.7,1154.8,1466.3],"peak":121806.0,"years":31,"autumn_shift_days_per_decade":0.7,"trend_years":31}},{"type":"Feature","geometry":{"type":"Point","coordinates":[-78.0037,40.9232]},"properties":{"station":"KCCX","weeks":[853.0,715.5,587.4,983.4,429.4,444.8,1055.3,531.1,1056.9,1142.2,1630.7,2036.2,4364.5,6510.6,16562.6,11333.2,8650.4,50724.5,43517.2,77240.3,37601.6,12583.4,3229.7,2285.8,2342.5,2872.2,3106.4,3175.3,3963.1,5596.0,7254.6,8881.6,14566.3,27507.0,35138.8,47404.7,149915.0,114101.0,53666.2,57482.1,41226.2,30883.8,32858.4,10174.3,5036.9,2398.3,1861.9,1253.1,877.9,763.5,976.6,624.3],"peak":149915.0,"years":30,"autumn_shift_days_per_decade":0.16,"trend_years":28}},{"type":"Feature","geometry":{"type":"Point","coordinates":[-81.8599,41.4132]},"properties":{"station":"KCLE","weeks":[975.3,1132.8,915.7,931.5,733.0,723.2,770.0,969.0,1341.4,3294.7,2723.1,5073.0,7920.9,8696.1,11409.0,16927.9,19994.7,73173.2,137403.0,134578.0,90791.7,28068.5,9905.3,9178.1,7820.3,6264.1,5962.2,8522.1,6853.1,6287.4,7163.5,10262.8,15062.0,19819.0,40493.1,71353.5,102894.0,99547.2,75028.9,45885.1,50983.2,18514.4,23963.1,5976.4,4647.1,2275.2,2070.9,1724.5,1008.6,928.0,844.8,1050.3],"peak":137403.0,"years":31,"autumn_shift_days_per_decade":-1.11,"trend_years":31}},{"type":"Feature","geometry":{"type":"Point","coordinates":[-81.0422,32.6555]},"properties":{"station":"KCLX","weeks":[2354.5,2072.5,1844.5,1603.8,2133.7,2572.6,2348.6,5990.3,7402.5,12542.2,14940.6,22996.2,61764.4,75396.8,93090.4,161481.0,294411.7,349904.5,259045.0,67837.7,20772.2,8830.1,5713.6,6278.1,5604.9,6097.1,7954.0,12962.5,15654.8,20412.9,23242.8,29814.7,41142.3,67387.6,66162.1,109903.8,151035.0,232705.0,290017.5,342053.0,267358.5,195818.0,151365.0,149263.0,93105.1,46840.4,25148.8,16311.4,8234.9,4717.4,3145.7,2454.7],"peak":349904.5,"years":30,"autumn_shift_days_per_decade":-0.01,"trend_years":30}},{"type":"Feature","geometry":{"type":"Point","coordinates":[-97.5113,27.784]},"properties":{"station":"KCRP","weeks":[10672.9,7161.6,8109.2,7364.4,6810.8,8034.6,9751.9,13077.7,21618.6,28513.2,63390.6,77893.9,126154.5,169051.0,371803.0,579441.0,829427.0,1028978.0,913425.0,572685.0,171146.0,57719.6,26937.2,24273.6,27068.8,32049.0,37305.4,40210.4,44740.8,46450.5,63639.9,60209.4,126393.0,248156.0,328933.0,447798.5,601957.5,334019.0,360634.0,283646.0,270141.0,219222.0,130345.0,92882.4,93659.4,68921.5,37147.8,31313.9,17692.2,15449.4,15183.8,8643.7],"peak":1028978.0,"years":30,"autumn_shift_days_per_decade":1.06,"trend_years":27}},{"type":"Feature","geometry":{"type":"Point","coordinates":[-73.1664,44.511]},"properties":{"station":"KCXX","weeks":[841.8,741.9,592.5,875.2,1108.4,911.1,748.6,905.7,713.1,774.4,1387.6,1513.6,3545.3,5146.2,22439.0,9875.2,10081.0,38321.7,41375.8,78632.9,84182.0,25379.1,4754.3,2378.8,1971.5,2037.1,2420.9,3157.2,4077.8,4610.6,6024.8,7817.4,10525.4,19239.4,29096.4,51325.5,77048.9,63879.2,58224.7,56728.9,42767.8,24696.3,21857.0,8182.6,4393.3,3231.3,1462.6,1197.1,970.1,1060.8,1258.0,912.5],"peak":84182.0,"years":29,"autumn_shift_days_per_decade":-0.79,"trend_years":29}},{"type":"Feature","geometry":{"type":"Point","coordinates":[-104.806,41.1519]},"properties":{"station":"KCYS","weeks":[1299.7,1148.2,1299.1,1271.8,954.4,888.4,795.8,1299.6,1590.7,1879.5,2164.4,2043.1,2213.7,2320.7,2943.8,5520.7,15183.1,42738.5,50346.0,69442.0,31891.2,18901.2,16040.1,13019.2,15352.6,12788.4,6767.9,7839.1,12451.6,25235.0,30142.8,38098.7,42033.3,57262.9,74879.6,101453.0,96092.9,104839.0,52693.4,25171.9,18399.4,8080.9,4577.3,3059.5,2486.9,1897.6,1347.4,1479.4,1503.4,1628.0,1331.3,1219.6],"peak":104839.0,"years":31,"autumn_shift_days_per_decade":-0.34,"trend_years":31}},{"type":"Feature","geometry":{"type":"Point","coordinates":[-121.6778,38.5011]},"properties":{"station":"KDAX","weeks":[11862.5,12077.5,10644.4,10142.6,6875.8,8187.9,8487.0,9007.1,8767.8,10563.9,11719.7,19357.4,18367.9,27839.9,67363.3,134559.0,113180.0,190216.5,180244.0,117890.5,76240.6,40918.4,19737.1,15024.8,14331.0,14149.0,12531.9,16899.7,19522.1,24167.3,29560.8,35732.3,43829.0,43233.9,54743.2,59952.3,68955.4,86865.5,77933.8,69248.9,60325.8,39782.9,20952.3,19215.0,12107.6,10457.2,11091.9,9840.5,9418.9,10780.6,15905.0,11982.8],"peak":190216.5,"years":31,"autumn_shift_days_per_decade":1.79,"trend_years":29}},{"type":"Feature","geometry":{"type":"Point","coordinates":[-99.9689,37.7608]},"properties":{"station":"KDDC","weeks":[5293.5,4394.3,3232.0,4133.5,3967.9,3979.5,3353.1,3920.5,3647.4,4372.8,8200.7,10791.7,13167.7,8061.7,16149.8,38704.3,84439.2,156402.0,178930.0,110258.0,64411.9,43803.3,36992.1,33907.8,33989.2,26730.2,23941.8,33254.4,35494.8,49395.2,39084.7,34836.9,45465.1,44013.2,54711.2,56902.8,39076.8,65434.6,110269.0,74331.9,74383.1,49467.2,22002.3,18591.9,14520.1,11232.6,10361.6,6870.2,5614.4,5933.9,6796.4,4751.3],"peak":178930.0,"years":31,"autumn_shift_days_per_decade":-0.55,"trend_years":30}},{"type":"Feature","geometry":{"type":"Point","coordinates":[-100.2803,29.2731]},"properties":{"station":"KDFX","weeks":[877.3,707.2,732.4,976.7,1529.2,1513.5,2474.1,7636.9,9814.1,22085.7,37696.6,88928.5,196619.0,253349.0,378119.5,573892.0,680903.2,480753.0,291651.0,137590.0,66974.6,34845.9,25937.8,25690.4,28366.3,35227.6,34120.9,30383.5,25219.2,29543.8,33100.1,24950.8,29976.7,23676.8,37857.9,48000.7,45030.0,61426.1,75753.9,92992.2,150584.0,105942.5,77471.9,57448.9,41335.3,31655.4,11952.4,6693.7,2428.9,1950.2,1625.8,880.4],"peak":680903.2,"years":28,"autumn_shift_days_per_decade":-0.97,"trend_years":25}},{"type":"Feature","geometry":{"type":"Point","coordinates":[-89.9844,32.2799]},"properties":{"station":"KDGX","weeks":[3953.0,3001.3,2993.0,2946.6,3003.3,3203.9,3821.9,5258.8,13554.2,11710.3,19567.1,31682.6,57513.8,74230.2,130308.5,296567.5,427150.0,344636.0,282899.5,104955.0,28569.0,13606.9,12149.5,12524.8,13440.0,15393.6,17949.3,22768.8,27258.1,38159.2,42531.2,57394.4,59970.8,92321.8,102329.4,144952.5,157589.0,169196.0,229065.5,163146.0,158695.5,124383.0,97863.9,89573.8,74330.6,34895.8,22148.1,11849.1,8681.8,5398.8,4848.4,4294.5],"peak":427150.0,"years":22,"autumn_shift_days_per_decade":-0.04,"trend_years":22}},{"type":"Feature","geometry":{"type":"Point","coordinates":[-74.4107,39.9471]},"properties":{"station":"KDIX","weeks":[921.0,1073.8,744.8,824.0,672.0,807.4,1012.3,1087.2,2046.7,3615.4,3945.4,3992.1,4217.6,5543.4,10115.8,9574.3,30519.7,95817.5,110021.0,104557.0,37593.3,15785.5,7287.8,4834.5,6208.4,5611.2,5210.4,5008.6,7081.0,9847.7,9909.8,12327.4,23710.4,38952.2,53404.5,51447.4,75568.8,69515.3,56242.6,82707.9,73731.4,84388.4,109764.4,49284.1,25815.0,11770.8,6900.2,2994.3,2308.4,2008.8,1559.3,1121.4],"peak":110021.0,"years":31,"autumn_shift_days_per_decade":1.21,"trend_years":31}},{"type":"Feature","geometry":{"type":"Point","coordinates":[-92.2097,46.8369]},"properties":{"station":"KDLH","weeks":[405.0,330.2,378.5,342.8,392.5,416.1,389.2,415.8,386.8,326.5,363.4,778.8,1334.0,2795.8,12537.5,18401.8,65749.0,92138.3,137083.0,142314.0,201923.0,64498.2,17500.3,6683.9,5334.2,5240.0,5106.1,6276.9,12835.8,23847.5,21087.4,27803.8,51136.4,138882.9,255374.5,315251.0,235696.0,403953.0,444237.0,172032.5,92696.4,33149.0,8822.9,4539.3,3038.6,1737.0,1086.3,763.2,363.3,430.7,309.1,322.5],"peak":444237.0,"years":30,"autumn_shift_days_per_decade":-0.46,"trend_years":29}},{"type":"Feature","geometry":{"type":"Point","coordinates":[-93.7229,41.7312]},"properties":{"station":"KDMX","weeks":[2186.1,2137.9,1693.2,2319.9,2367.3,2074.2,2112.7,3179.4,3681.7,7908.3,17840.7,20580.7,52267.8,38241.8,59633.7,58864.7,109835.0,344722.0,460617.0,646727.0,396551.0,125909.0,39648.8,22338.7,20241.8,19376.5,21939.2,28352.1,33970.9,48436.0,48089.1,63492.6,95717.3,104673.1,137913.0,111639.0,141467.0,103954.0,250735.0,137390.0,183653.0,232058.0,125571.0,57681.4,50189.2,16219.7,7424.7,5527.9,4080.3,3452.5,2302.0,2677.0],"peak":646727.0,"years":31,"autumn_shift_days_per_decade":0.69,"trend_years":31}},{"type":"Feature","geometry":{"type":"Point","coordinates":[-75.4401,38.8258]},"properties":{"station":"KDOX","weeks":[3163.2,3002.9,2356.9,2382.8,2941.6,3181.5,2799.7,3536.3,3477.9,6316.5,7547.6,6404.9,8776.0,7018.7,13908.1,28529.4,50260.6,139139.0,56979.0,81865.6,37345.3,12621.1,5954.8,5112.7,7180.1,7207.1,5741.7,5969.2,8024.1,10141.8,12600.4,19217.1,25464.8,42349.4,69998.2,67350.7,88500.5,88290.8,67405.1,86136.8,76718.9,104184.6,97418.7,66106.9,54377.1,18701.4,8648.8,6160.9,4179.0,3681.3,3085.6,3299.1],"peak":139139.0,"years":26,"autumn_shift_days_per_decade":-0.02,"trend_years":22}},{"type":"Feature","geometry":{"type":"Point","coordinates":[-83.4717,42.7]},"properties":{"station":"KDTX","weeks":[806.9,949.1,739.4,866.5,479.5,640.9,686.6,649.9,967.5,1558.4,2569.1,3826.8,6596.5,6838.7,9730.6,10005.5,14315.7,69278.6,87053.0,94591.6,57100.8,17297.1,6890.9,4586.5,4377.1,4514.9,4669.8,4708.9,6360.8,7909.9,7234.3,7585.7,8914.1,19617.4,31838.6,81188.2,81730.4,73843.8,58303.6,62906.4,58773.5,28922.7,17528.6,8024.1,5695.4,3797.2,2769.2,2044.0,1210.0,1091.5,967.6,1056.7],"peak":94591.6,"years":31,"autumn_shift_days_per_decade":-1.01,"trend_years":30}},{"type":"Feature","geometry":{"type":"Point","coordinates":[-90.5808,41.6117]},"properties":{"station":"KDVN","weeks":[2987.2,3789.5,2287.0,2731.0,3021.6,3053.8,3182.5,3796.8,5562.3,8001.8,14210.7,14546.5,23707.7,23130.8,43221.2,64377.7,78328.0,162804.3,367779.5,280237.0,142935.5,41073.8,18821.3,17872.4,13354.2,16566.3,17715.1,16527.7,21023.8,24504.2,27853.5,29429.1,44639.3,68107.7,111439.0,146498.0,132063.0,133257.0,310287.0,123129.0,204569.0,188646.0,70872.8,50227.8,21567.6,16027.6,10844.4,6502.1,5245.2,4858.5,2920.5,2571.0],"peak":367779.5,"years":31,"autumn_shift_days_per_decade":-1.23,"trend_years":31}},{"type":"Feature","geometry":{"type":"Point","coordinates":[-99.2543,32.5385]},"properties":{"station":"KDYX","weeks":[1758.7,1779.1,1441.4,2765.8,1970.2,1752.4,1914.0,3948.2,7309.2,12593.0,27937.3,37191.8,71702.8,89924.9,191346.0,262517.0,453490.0,667983.0,330983.0,130787.0,74416.9,34177.8,30834.2,23824.1,26359.9,27474.0,27927.0,27322.6,43877.6,81773.6,69824.1,83908.1,59417.9,56783.2,44866.8,80021.3,68714.1,70783.4,126845.5,113151.0,167281.0,103414.3,83492.4,50186.9,49772.6,24164.2,11364.3,7378.4,4789.6,2690.5,2770.9,1928.6],"peak":667983.0,"years":25,"autumn_shift_days_per_decade":0.95,"trend_years":24}},{"type":"Feature","geometry":{"type":"Point","coordinates":[-94.2645,38.8103]},"properties":{"station":"KEAX","weeks":[2300.6,1902.9,1679.7,1469.2,1469.6,1224.2,1529.7,2865.9,5142.3,7400.6,14790.3,18239.2,25399.1,38614.4,30522.9,79370.9,70257.2,337246.0,538283.0,344262.0,219018.0,67820.2,37585.0,31783.0,32377.5,26104.1,26338.1,30903.8,34702.9,53924.3,56904.9,65389.0,66734.0,79077.9,97576.6,98026.2,67331.7,83035.3,138841.8,79648.4,116039.0,115894.8,95401.8,49874.9,31748.8,14434.2,9062.1,5567.5,2866.5,3176.1,2287.2,2642.1],"peak":538283.0,"years":31,"autumn_shift_days_per_decade":-0.14,"trend_years":31}},{"type":"Feature","geometry":{"type":"Point","coordinates":[-110.6303,31.8937]},"properties":{"station":"KEMX","weeks":[417.8,432.3,385.6,604.3,489.7,688.6,742.2,1070.2,1637.3,2466.5,4583.9,5990.4,10058.6,21419.2,35429.5,51690.9,40269.4,80496.9,57851.2,42690.7,16831.0,9960.4,4695.1,2393.6,2902.6,3434.6,5073.5,8709.3,9772.8,23028.3,40949.5,47761.8,57449.3,52613.8,78028.9,79868.9,67926.4,69913.6,52090.7,40771.6,28146.4,17134.7,8489.0,4516.7,2633.9,1532.4,862.9,666.0,527.6,667.6,496.2,411.6],"peak":80496.9,"years":31,"autumn_shift_days_per_decade":-2.59,"trend_years":30}},{"type":"Feature","geometry":{"type":"Point","coordinates":[-74.0641,42.5866]},"properties":{"station":"KENX","weeks":[939.5,618.1,522.1,740.4,566.1,723.1,714.4,601.5,1181.0,809.4,1487.8,1276.3,3058.8,3239.9,7988.3,11263.7,6826.6,29391.4,31328.3,61710.7,42159.9,11885.8,3224.1,1386.6,1146.9,1531.5,1915.0,2513.5,4979.2,5292.6,6532.6,8394.6,14141.9,17279.8,33177.8,51772.2,98569.5,77467.1,57304.7,60948.0,58317.4,23419.9,19975.2,10732.0,6025.6,2346.4,1530.0,1100.3,873.0,977.9,719.5,750.7],"peak":98569.5,"years":31,"autumn_shift_days_per_decade":-0.42,"trend_years":30}},{"type":"Feature","geometry":{"type":"Point","coordinates":[-85.4594,31.4606]},"properties":{"station":"KEOX","weeks":[2771.1,2170.9,2327.6,2391.6,1799.3,2768.5,2681.6,7756.8,6072.9,10073.5,9352.9,19229.0,41988.7,50946.2,66518.4,94839.4,130194.0,69142.6,32072.0,14084.1,8346.9,6289.8,5565.5,5538.0,5029.4,7734.6,9443.6,15301.1,21447.8,22041.0,30455.5,31648.3,31937.1,63594.8,64882.8,126906.6,129055.5,238577.0,175960.0,162341.5,290523.5,118079.0,60807.6,60842.0,47189.9,36712.8,16971.2,9823.9,5682.6,3921.8,2485.6,2714.2],"peak":290523.5,"years":18,"autumn_shift_days_per_decade":0.68,"trend_years":16}},{"type":"Feature","geometry":{"type":"Point","coordinates":[-106.698,31.8731]},"properties":{"station":"KEPZ","weeks":[1683.3,1491.4,1469.0,1500.8,1494.5,1859.6,2601.0,3084.1,3157.1,4647.6,9035.5,8874.4,18073.6,25162.8,44025.1,54553.1,93779.5,126771.0,83444.2,61322.8,41419.3,37293.1,20418.9,14417.0,24861.6,19061.0,16024.5,13860.7,23672.2,37037.0,52493.7,81836.4,88389.8,94453.5,150633.5,167165.0,198442.0,203511.5,182999.5,123356.0,114686.5,73985.9,33427.1,20022.6,10640.7,5582.0,2969.4,2116.5,1917.3,2013.3,1989.3,1631.5],"peak":203511.5,"years":30,"autumn_shift_days_per_decade":-0.22,"trend_years":29}},{"type":"Feature","geometry":{"type":"Point","coordinates":[-114.8916,35.7013]},"properties":{"station":"KESX","weeks":[230.0,217.0,251.8,253.5,259.8,392.9,366.3,688.6,838.0,1554.1,1786.2,3346.0,4294.7,4738.0,15821.3,30865.2,24042.3,54636.6,44142.2,30111.7,9414.8,8103.2,3131.4,2018.6,1849.9,1732.3,1479.4,1703.4,2493.6,4249.2,4795.5,9959.2,11124.5,8667.0,8719.6,10310.0,14616.6,13643.0,10399.8,10461.0,7948.9,3974.7,2651.8,1443.6,767.0,582.9,323.0,337.8,361.7,325.7,296.2,286.0],"peak":54636.6,"years":27,"autumn_shift_days_per_decade":-2.05,"trend_years":26}},{"type":"Feature","geometry":{"type":"Point","coordinates":[-85.9217,30.565]},"properties":{"station":"KEVX","weeks":[3577.8,4510.6,3294.9,3367.8,3201.1,5334.6,3645.2,6090.0,5857.5,7560.0,10699.4,23821.1,38340.9,47172.3,51329.2,62171.1,84601.5,42957.4,31032.0,12498.0,10706.0,7583.7,6158.8,7909.3,7725.7,9501.4,11788.6,13603.5,18815.0,27213.8,30246.8,41410.4,46964.8,85731.9,86189.2,165835.2,146121.0,171075.5,379510.0,291663.0,311273.5,144649.0,83748.8,71252.9,66038.0,44998.8,27540.2,14771.2,7869.0,7481.0,4490.2,4665.1],"peak":379510.0,"years":26,"autumn_shift_days_per_decade":-0.56,"trend_years":23}},{"type":"Feature","geometry":{"type":"Point","coordinates":[-98.0286,29.7041]},"properties":{"station":"KEWX","weeks":[4826.1,3751.7,3488.3,4937.8,4806.8,4667.9,7500.0,16345.5,28805.7,45737.1,81574.9,117972.2,215520.2,279408.5,321039.0,399683.0,745062.0,833715.8,743977.0,597777.0,316084.5,114742.5,85091.1,96333.5,108216.0,116917.0,117594.5,132279.5,136254.0,168479.0,157934.0,125884.0,109819.5,150369.0,173445.0,204370.0,209161.0,154349.0,263849.0,165283.0,239527.0,185918.0,120799.0,114033.0,103027.9,51771.9,33534.4,19787.8,9693.3,7750.0,5406.0,4345.7],"peak":833715.8,"years":31,"autumn_shift_days_per_decade":2.2,"trend_years":30}},{"type":"Feature","geometry":{"type":"Point","coordinates":[-117.5607,35.0979]},"properties":{"station":"KEYX","weeks":[924.7,1102.1,1066.2,768.3,767.8,1178.2,954.1,1660.4,1723.7,3218.3,5702.2,5923.8,5094.9,11750.2,25970.7,54235.8,34884.6,44122.2,46670.2,24917.5,19728.5,8272.2,5072.7,3241.8,2980.4,2850.5,3063.2,4975.3,7916.6,9794.6,17881.6,27813.6,32691.2,38515.7,37321.8,35875.3,40598.0,38747.9,34976.5,32414.0,30362.6,14436.8,7772.0,3679.7,2204.3,1443.3,1419.2,734.2,1051.2,1119.9,1293.1,454.1],"peak":54235.8,"years":17,"autumn_shift_days_per_decade":1.25,"trend_years":16}},{"type":"Feature","geometry":{"type":"Point","coordinates":[-80.274,37.0244]},"properties":{"station":"KFCX","weeks":[701.4,944.4,592.1,650.9,620.2,838.3,1053.7,1717.9,2455.1,4854.3,4557.7,14978.1,6766.4,8911.4,17638.5,17349.5,35928.2,79849.9,91528.1,58288.2,28316.2,9028.2,4559.8,4621.1,4720.0,4616.8,4994.6,4920.6,5916.4,5640.6,9525.8,12072.3,20281.2,35272.4,63417.8,84988.9,142792.5,128615.1,215868.0,218643.0,101990.0,98009.7,57840.7,48736.9,21056.9,9237.2,3896.3,2373.8,1522.0,812.9,848.2,612.5],"peak":218643.0,"years":31,"autumn_shift_days_per_decade":-0.16,"trend_years":31}},{"type":"Feature","geometry":{"type":"Point","coordinates":[-98.9767,34.3622]},"properties":{"station":"KFDR","weeks":[3670.2,3043.7,3127.2,3209.4,3369.3,2821.2,3833.0,4973.0,9683.1,11799.4,19773.6,21590.8,53960.6,37081.2,115639.0,195778.0,296805.0,397794.0,421786.0,160713.0,79950.6,53031.9,44082.5,41166.0,42193.4,41214.7,47738.9,78379.0,120750.5,149888.0,146270.0,164489.0,122687.0,62658.3,93649.4,115030.0,104705.0,111357.5,232757.0,128245.0,127016.0,169917.0,127454.5,77126.4,63756.4,31749.2,18076.2,9652.9,5591.2,5468.7,4215.9,4048.8],"peak":421786.0,"years":26,"autumn_shift_days_per_decade":-4.23,"trend_years":24}},{"type":"Feature","geometry":{"type":"Point","coordinates":[-103.6189,34.6342]},"properties":{"station":"KFDX","weeks":[1432.0,1358.5,1211.9,1080.5,933.4,1173.0,1245.1,1644.8,1518.7,2353.3,4201.6,3950.5,4863.4,9741.0,19720.7,32569.1,55528.9,115404.0,82506.3,65141.8,47030.2,25616.8,16920.8,20529.0,15903.5,15226.2,19606.8,17440.5,16599.6,28361.2,34598.4,46567.5,39942.4,53440.0,73910.6,67067.6,93753.5,106688.1,150543.0,59624.1,55966.1,30610.2,18678.6,10229.9,5431.5,2620.3,2004.0,1652.0,1085.7,1401.5,1218.1,1272.9],"peak":150543.0,"years":25,"autumn_shift_days_per_decade":-1.47,"trend_years":22}},{"type":"Feature","geometry":{"type":"Point","coordinates":[-84.566,33.3635]},"properties":{"station":"KFFC","weeks":[2197.7,2154.2,1815.6,2223.3,2066.5,1857.6,2349.2,7128.4,4944.3,16958.6,10010.9,19392.8,21363.8,40508.8,49637.6,179380.0,287077.5,193782.5,130746.5,53067.1,22198.8,12290.1,10351.8,10109.2,7928.5,9641.5,10110.8,13243.4,14112.3,20877.9,30628.3,38848.3,51187.4,108219.0,93265.8,174181.5,196882.5,218880.0,380178.0,202410.0,246683.0,154866.5,117360.0,130516.0,68345.4,34027.1,14503.9,10381.7,4165.5,3778.2,2588.2,2111.8],"peak":380178.0,"years":31,"autumn_shift_days_per_decade":-0.63,"trend_years":31}},{"type":"Feature","geometry":{"type":"Point","coordinates":[-96.7294,43.5878]},"properties":{"station":"KFSD","weeks":[434.8,443.9,403.6,364.3,495.2,541.0,428.6,770.9,967.0,1403.9,2681.9,3339.3,8255.8,11379.5,21294.0,18189.5,41682.9,72322.3,78462.9,143602.4,84490.1,36900.7,13174.2,8638.3,8668.6,9314.4,10742.7,14841.5,21204.0,23869.8,22343.6,27790.9,31678.1,38076.7,44371.4,48112.2,42397.8,83793.1,84198.5,38201.7,100883.0,46217.2,25660.0,17798.2,8358.8,3646.8,2440.6,1733.9,814.1,655.1,536.2,643.8],"peak":143602.4,"years":31,"autumn_shift_days_per_decade":-0.49,"trend_years":31}},{"type":"Feature","geometry":{"type":"Point","coordinates":[-111.1984,34.5743]},"properties":{"station":"KFSX","weeks":[245.9,210.0,223.6,246.4,398.7,511.1,656.5,779.3,1116.3,2080.2,2284.7,4127.5,4977.5,10367.6,10916.9,29829.1,36914.4,46928.1,41854.3,31421.5,15924.8,10694.9,4557.3,2397.0,2546.3,2621.9,2282.9,4920.2,4588.4,12492.1,16847.6,26752.8,32391.1,27902.7,41149.6,63311.2,36761.1,40305.1,33134.3,21112.3,19474.6,12802.7,6404.1,3518.7,1677.1,877.7,320.3,319.3,284.7,199.6,302.2,225.5],"peak":63311.2,"years":30,"autumn_shift_days_per_decade":-0.77,"trend_years":30}},{"type":"Feature","geometry":{"type":"Point","coordinates":[-104.5458,39.7866]},"properties":{"station":"KFTG","weeks":[996.5,887.8,764.4,820.3,656.9,804.3,641.1,1070.5,1163.0,992.0,1740.5,1531.3,1579.0,1591.3,2205.6,3991.4,7800.9,41745.9,44287.6,38397.2,23071.6,18930.0,14049.3,11894.9,10094.8,8549.7,6379.2,7736.2,10720.1,18843.5,33148.2,31973.9,41879.6,45717.8,64135.9,73372.3,101586.0,112507.0,67035.7,40166.1,21901.8,12293.5,4931.9,2659.7,1577.5,1120.3,955.7,838.2,1217.4,919.3,1190.0,1105.0],"peak":112507.0,"years":31,"autumn_shift_days_per_decade":0.67,"trend_years":31}},{"type":"Feature","geometry":{"type":"Point","coordinates":[-97.3032,32.573]},"properties":{"station":"KFWS","weeks":[2688.5,2095.5,2418.1,1727.1,2313.9,2504.1,3438.5,6242.0,10990.5,20652.8,34390.5,56689.0,83466.4,113493.0,171383.5,289162.0,487367.0,793801.0,689095.5,443702.0,224354.0,64599.9,33483.9,19952.7,25783.1,25657.7,31853.4,51353.3,116712.0,145784.0,159035.0,129840.0,85207.2,99436.3,162379.0,134735.0,144954.0,133992.0,240836.0,200154.0,192966.0,148526.0,98269.7,81631.1,79099.5,31919.5,14306.5,10527.3,4644.2,3463.5,2933.1,2878.5],"peak":793801.0,"years":31,"autumn_shift_days_per_decade":-3.05,"trend_years":31}},{"type":"Feature","geometry":{"type":"Point","coordinates":[-106.6247,48.2064]},"properties":{"station":"KGGW","weeks":[991.5,906.0,612.9,542.7,448.8,415.9,453.8,547.3,676.6,1020.0,1534.5,2028.5,2282.7,4637.9,5347.6,10863.4,19146.0,52488.5,95793.9,165026.0,27918.5,16971.1,8528.8,5016.0,6515.4,7960.1,8948.6,11400.9,15800.8,16628.7,15635.4,17416.2,25055.2,30370.3,45790.0,63474.8,95302.7,85810.9,69528.3,20321.1,16821.8,14014.3,4135.3,3072.0,1432.4,871.8,1080.6,979.0,843.8,813.8,790.7,646.1],"peak":165026.0,"years":30,"autumn_shift_days_per_decade":-0.14,"trend_years":29}},{"type":"Feature","geometry":{"type":"Point","coordinates":[-108.2138,39.0622]},"properties":{"station":"KGJX","weeks":[171.8,246.9,320.6,153.6,277.0,165.9,265.5,280.4,353.6,392.6,643.3,599.0,559.7,704.1,799.7,791.6,1221.5,2376.1,3187.5,4763.1,2757.7,2292.6,1786.7,1219.9,1683.4,1464.7,1237.7,2086.6,2607.7,3559.6,5216.1,7263.6,14692.3,16659.8,24900.3,26845.8,15306.1,15255.7,16807.0,7694.2,7091.5,3410.5,1250.1,557.8,391.2,318.6,319.5,239.9,153.3,127.5,315.4,288.5],"peak":26845.8,"years":30,"autumn_shift_days_per_decade":-0.97,"trend_years":30}},{"type":"Feature","geometry":{"type":"Point","coordinates":[-101.7003,39.3669]},"properties":{"station":"KGLD","weeks":[3866.5,3704.1,3372.9,3600.6,3624.3,3481.4,3220.5,3416.8,4043.8,3560.6,3648.8,4634.7,5176.0,5988.3,18658.9,16038.8,30428.0,105101.0,99607.2,99822.9,44582.7,27101.2,33789.3,28810.2,24642.0,20187.3,15338.3,20396.8,28311.2,27681.4,26237.7,26694.4,27143.6,27817.3,46539.9,40903.9,62462.6,119735.2,95566.3,53218.1,70971.6,32270.0,12296.5,9419.9,7387.1,5150.7,5236.1,4858.3,3605.7,3762.4,3204.5,3453.1],"peak":119735.2,"years":31,"autumn_shift_days_per_decade":-0.41,"trend_years":31}},{"type":"Feature","geometry":{"type":"Point","coordinates":[-88.1111,44.4986]},"properties":{"station":"KGRB","weeks":[2257.4,2599.5,2581.3,1839.4,1923.4,2193.3,2039.2,2315.9,2874.7,4114.9,6670.8,9930.5,16646.6,29076.5,39327.9,47802.4,36866.2,109902.5,121877.5,238889.0,133453.5,49721.8,17122.1,13354.0,11461.2,10573.9,11355.7,12126.6,17339.0,21981.0,20337.2,26189.9,38479.6,63903.0,117129.0,213301.0,200632.5,155892.0,210210.5,120555.0,82377.5,71831.2,27866.8,20990.2,15188.3,10168.6,8049.6,6020.1,4298.2,3374.4,3352.6,3102.2],"peak":238889.0,"years":31,"autumn_shift_days_per_decade":-1.98,"trend_years":31}},{"type":"Feature","geometry":{"type":"Point","coordinates":[-97.3829,30.7218]},"properties":{"station":"KGRK","weeks":[4228.7,3564.4,4746.7,4649.6,5331.6,4429.9,8103.7,12528.7,26875.7,26751.2,54424.1,92682.6,125543.0,141926.0,194433.0,295581.0,610907.5,706587.0,567712.0,425693.8,208038.0,69549.6,41576.8,43624.4,51331.6,52926.2,64965.1,88725.9,97729.0,125019.0,125929.5,117835.5,98044.9,108428.4,161096.0,176655.5,202856.8,156974.0,230598.0,137929.0,207940.0,180831.0,119926.0,133980.1,81906.8,52792.6,27095.3,19261.7,8311.8,7279.0,5922.1,3802.0],"peak":706587.0,"years":26,"autumn_shift_days_per_decade":-1.62,"trend_years":25}},{"type":"Feature","geometry":{"type":"Point","coordinates":[-85.5449,42.8939]},"properties":{"station":"KGRR","weeks":[1830.9,2018.8,1769.5,1850.6,1716.6,1395.8,1738.9,1835.7,1783.6,3366.6,4982.3,8193.8,13124.7,17265.3,20908.6,27082.1,32818.2,110290.0,193660.5,207636.5,135064.5,41851.6,18965.8,13857.0,12141.6,10993.5,10460.7,13875.6,15329.3,18253.6,17273.5,21636.4,25806.8,45174.8,94369.4,205590.0,220056.0,222412.0,222676.0,141996.0,163115.0,79616.0,33872.9,21843.0,9282.5,6945.4,4474.9,5391.9,2638.8,2154.8,2182.8,1999.5],"peak":222676.0,"years":31,"autumn_shift_days_per_decade":0.02,"trend_years":31}},{"type":"Feature","geometry":{"type":"Point","coordinates":[-82.2198,34.8833]},"properties":{"station":"KGSP","weeks":[2121.7,1916.0,1898.1,1863.5,1929.7,2085.0,2575.4,4792.4,6213.6,9763.6,11933.3,25023.8,24731.2,55584.2,63668.4,111886.6,254786.0,283077.0,248266.5,125314.5,40599.1,13032.0,12256.2,10215.0,10880.2,8224.1,9629.8,11320.4,12386.0,14817.5,23461.4,32690.5,43592.7,80410.3,97385.0,166478.0,187737.0,285545.0,415529.8,278449.0,312481.0,156304.9,131343.0,111613.0,56981.4,18656.5,9682.8,4844.5,3644.9,2586.2,2036.7,1892.1],"peak":415529.8,"years":31,"autumn_shift_days_per_decade":0.06,"trend_years":30}},{"type":"Feature","geometry":{"type":"Point","coordinates":[-88.3292,33.8969]},"properties":{"station":"KGWX","weeks":[2919.9,2288.5,1987.1,2257.4,2193.4,2234.6,2891.4,4676.6,10321.4,6021.9,12079.0,20900.1,36134.2,42527.9,91048.9,211361.5,447218.5,424837.0,267260.5,119422.0,40990.3,16660.3,10250.1,12502.0,13008.0,11776.8,13478.8,14850.9,19986.2,28181.8,38398.2,53511.6,58499.1,95403.6,115253.8,215688.0,199977.5,170627.0,294824.0,159789.0,183365.3,156120.0,105582.0,92682.6,72482.5,36263.5,18834.0,8898.0,6236.6,3977.9,2709.9,2726.6],"peak":447218.5,"years":27,"autumn_shift_days_per_decade":1.23,"trend_years":22}},{"type":"Feature","geometry":{"type":"Point","coordinates":[-70.2564,43.8913]},"properties":{"station":"KGYX","weeks":[492.8,610.1,600.7,506.8,470.5,454.6,408.8,525.6,527.2,568.9,1480.7,1757.6,6285.5,7885.6,18042.1,27186.9,24204.0,44199.6,95762.6,123713.0,140430.0,49904.6,6815.7,2138.4,1356.5,1337.7,1622.5,1968.0,3883.5,4878.9,6537.7,9497.5,19778.0,41013.5,57683.6,62763.8,131906.5,115056.0,73876.8,101009.0,101449.0,81949.9,59706.3,16969.8,7322.1,4214.6,1389.5,917.6,695.3,567.2,612.9,535.7],"peak":140430.0,"years":31,"autumn_shift_days_per_decade":-0.1,"trend_years":31}},{"type":"Feature","geometry":{"type":"Point","coordinates":[-90.4074,30.5193]},"properties":{"station":"KHDC","weeks":[904.3,735.8,1048.1,1076.6,2273.6,7911.5,1879.6,553.7,6040.0,2652.9,23371.3,26395.2,54340.0,52261.8,75039.4,283218.0,155392.0,188723.5,135046.0,99021.6,14006.0,9361.1,9955.9,12193.8,13045.8,18874.8,29907.8,33183.8,37618.6,44988.8,51173.3,72365.9,53598.1,83063.6,48889.5,107109.1,103183.6,68033.5,282761.5,157829.5,277646.5,71590.1,44056.8,48189.3,31007.2,42331.2,11648.5,3838.9,1216.4,2207.6,2431.1,1969.8],"peak":283218.0,"years":2,"autumn_shift_days_per_decade":null,"trend_years":null}},{"type":"Feature","geometry":{"type":"Point","coordinates":[-106.12,33.077]},"properties":{"station":"KHDX","weeks":[388.7,472.1,401.6,452.1,433.9,605.6,1007.5,1151.2,2180.8,2035.8,4973.0,6986.9,6114.8,9912.6,19346.5,33609.8,54016.8,82551.0,71560.4,35301.7,23869.4,18287.2,15129.8,9938.6,9604.2,8190.4,10239.1,10124.5,15172.4,26944.8,27665.1,42995.9,51387.3,61072.7,98143.8,112493.0,114041.0,117906.5,99022.7,65582.9,46930.5,32676.8,21701.9,8124.6,4100.3,2222.0,1294.0,742.8,693.9,612.6,555.1,531.5],"peak":117906.5,"years":27,"autumn_shift_days_per_decade":-1.64,"trend_years":26}},{"type":"Feature","geometry":{"type":"Point","coordinates":[-95.0787,29.4719]},"properties":{"station":"KHGX","weeks":[6588.0,7328.6,7359.4,7607.7,7965.2,7762.7,8481.9,12267.1,13002.5,18068.3,27820.3,32210.4,50725.8,62471.4,100324.0,267499.0,427288.0,372078.0,266937.0,159046.0,50585.7,22451.6,20285.0,21268.0,20915.8,23607.5,21307.2,26704.6,28716.1,34952.8,44392.5,43252.5,67672.9,123320.0,163389.8,244962.5,245671.0,159379.5,250082.0,137388.5,174604.0,122317.2,95075.6,80598.7,65835.6,49794.7,30499.5,20645.6,14062.0,11433.2,10761.4,9192.4],"peak":427288.0,"years":31,"autumn_shift_days_per_decade":-1.02,"trend_years":30}},{"type":"Feature","geometry":{"type":"Point","coordinates":[-119.6321,36.3142]},"properties":{"station":"KHNX","weeks":[5828.8,6021.9,5917.9,6518.1,5869.3,6425.5,7022.1,7329.7,7935.4,9267.2,12619.2,16788.9,22445.3,34401.2,74585.8,142503.0,83999.5,89996.1,108490.0,73561.1,36687.9,19526.5,12352.9,11935.4,12902.5,14335.5,18257.6,23195.9,26251.2,33172.4,46007.0,46890.7,47101.7,50084.7,58150.4,84638.1,96648.1,103733.5,105933.0,95352.1,77597.7,43403.0,26008.5,18486.5,12177.1,9741.9,9561.1,7299.8,7158.5,7045.8,6056.7,7159.3],"peak":142503.0,"years":30,"autumn_shift_days_per_decade":2.36,"trend_years":29}},{"type":"Feature","geometry":{"type":"Point","coordinates":[-87.2856,36.737]},"properties":{"station":"KHPX","weeks":[1956.4,1701.2,1981.4,1998.1,1872.1,1959.0,2700.4,5413.7,7648.1,5095.7,8292.1,5085.2,22351.4,16719.7,21340.4,69689.0,208408.0,386216.0,505987.0,249601.0,71747.9,27856.3,12422.2,13277.9,13154.7,8529.5,9493.3,9325.5,15684.4,23557.0,29982.8,46662.3,66990.9,69756.5,109516.0,108578.0,136222.0,167574.0,210751.5,140347.0,127637.5,96670.1,70024.8,30630.3,35828.1,15150.3,7843.4,5290.8,4054.2,2673.5,2066.8,2279.6],"peak":505987.0,"years":17,"autumn_shift_days_per_decade":-1.58,"trend_years":15}},{"type":"Feature","geometry":{"type":"Point","coordinates":[-86.0836,34.9306]},"properties":{"station":"KHTX","weeks":[586.8,585.5,510.3,879.0,799.9,1178.1,747.5,2853.3,3461.9,6678.1,6358.3,17568.6,18838.8,33263.3,30084.5,114816.8,300330.0,301934.0,272145.0,96702.9,41283.2,10855.7,10253.5,11195.8,9114.2,10611.3,7238.7,9250.4,12073.7,17364.4,24551.4,37825.9,63227.5,95939.1,122098.0,141602.5,235316.0,197042.0,316921.5,172081.0,159268.5,114470.5,99481.2,63479.8,37166.9,14981.7,7441.1,3539.2,1527.6,1077.2,927.5,653.2],"peak":316921.5,"years":28,"autumn_shift_days_per_decade":-0.18,"trend_years":27}},{"type":"Feature","geometry":{"type":"Point","coordinates":[-97.4431,37.6544]},"properties":{"station":"KICT","weeks":[5520.4,5393.7,5340.0,5167.3,4870.7,5228.5,4844.1,5617.6,6705.6,10359.5,12087.0,22389.2,26591.3,30456.8,64586.8,99323.9,161963.0,393819.0,349531.0,238979.0,130172.0,72479.0,43308.8,44331.6,41200.2,36058.7,38409.5,48295.0,62682.6,91598.5,76254.3,76772.4,88260.6,88587.7,81318.4,89747.8,84188.8,81279.1,192092.5,146764.0,135410.5,107394.0,67246.8,55149.0,39633.3,22481.4,14550.5,8910.5,6449.6,6360.9,5998.6,5592.0],"peak":393819.0,"years":31,"autumn_shift_days_per_decade":-1.44,"trend_years":31}},{"type":"Feature","geometry":{"type":"Point","coordinates":[-112.8622,37.5911]},"properties":{"station":"KICX","weeks":[161.5,166.8,179.5,194.4,214.1,253.8,295.7,290.7,384.7,468.5,437.6,399.5,322.0,436.9,863.1,818.2,895.3,1384.6,2180.8,3307.3,1514.2,2685.4,1423.6,721.8,729.9,1062.1,1022.3,1382.1,1336.4,2260.2,2723.5,3595.7,4111.0,5012.9,7954.3,6784.9,6295.9,4752.3,4262.0,3503.9,2151.1,1869.5,829.2,437.7,284.5,201.6,184.9,213.7,172.7,245.4,241.1,203.2],"peak":7954.3,"years":29,"autumn_shift_days_per_decade":-0.63,"trend_years":28}},{"type":"Feature","geometry":{"type":"Point","coordinates":[-83.8214,39.4205]},"properties":{"station":"KILN","weeks":[3814.7,3327.1,2975.6,2943.8,2612.9,1953.6,2354.4,3949.5,6569.2,9563.0,14973.5,13272.5,21878.0,27210.0,22678.8,25719.2,64783.9,165229.0,288720.0,302491.0,165407.0,50012.4,19217.6,16645.2,17700.2,15641.4,10811.9,17487.9,17864.7,21437.3,29654.8,53445.9,60815.6,88302.9,125209.0,154138.0,249410.0,209864.0,209007.0,190534.5,108483.0,92486.4,59222.8,34745.5,28729.8,9931.1,10525.4,5787.8,4259.7,4251.5,3443.9,3953.9],"peak":302491.0,"years":31,"autumn_shift_days_per_decade":-0.86,"trend_years":31}},{"type":"Feature","geometry":{"type":"Point","coordinates":[-89.3368,40.1505]},"properties":{"station":"KILX","weeks":[3100.4,3145.8,2728.1,2609.7,2363.3,2472.8,3493.6,3896.0,5637.9,7089.8,12035.2,12256.6,22247.9,22037.2,29872.3,37127.0,59316.9,267812.0,253597.5,211616.0,96700.6,31023.5,18606.2,14809.8,15158.0,16123.0,11437.8,12266.0,15519.5,17744.4,21744.6,27877.3,39413.8,64615.5,105120.5,169027.0,157397.0,160210.0,219737.0,117835.5,130907.0,144776.0,97580.4,41921.4,23320.8,15194.7,11022.6,7221.4,5202.5,4625.8,3731.4,3326.6],"peak":267812.0,"years":31,"autumn_shift_days_per_decade":-1.71,"trend_years":31}},{"type":"Feature","geometry":{"type":"Point","coordinates":[-86.2803,39.7075]},"properties":{"station":"KIND","weeks":[5895.1,4580.5,4390.0,3413.9,3677.1,3469.5,4162.7,6363.4,8229.0,12386.2,16467.7,25389.8,29102.4,48661.3,40434.8,46190.1,73147.8,216898.5,299698.0,209973.0,113759.0,43971.7,26732.0,19215.0,19127.2,16966.7,14822.8,15582.3,15939.1,19701.0,22654.9,34525.4,43813.2,69230.7,117970.0,168149.0,205181.5,249160.0,222729.0,114666.6,111068.0,85519.8,65614.4,33967.2,22649.4,13564.2,13080.9,8850.1,6823.6,4281.7,5033.4,4340.8],"peak":299698.0,"years":31,"autumn_shift_days_per_decade":-1.67,"trend_years":31}},{"type":"Feature","geometry":{"type":"Point","coordinates":[-95.5642,36.1751]},"properties":{"station":"KINX","weeks":[2859.2,2049.2,2700.6,2526.4,2175.0,2323.1,2993.8,4204.5,4310.1,10141.1,11691.1,18390.2,44081.6,40893.3,57250.9,118761.0,144131.0,521134.0,527360.0,331327.0,153710.0,61999.2,38817.3,27948.3,26406.1,26657.7,24201.9,33341.7,36225.2,53233.7,67623.3,76744.1,81263.8,65268.5,90345.2,111279.5,89083.9,82770.4,187651.0,111831.0,75404.0,102089.0,70934.8,68429.4,58507.4,19813.0,12489.0,9268.4,4857.0,4508.4,3374.3,3836.3],"peak":527360.0,"years":31,"autumn_shift_days_per_decade":-0.53,"trend_years":30}},{"type":"Feature","geometry":{"type":"Point","coordinates":[-111.6699,33.2892]},"properties":{"station":"KIWA","weeks":[2039.5,2088.8,2201.9,2370.0,2290.2,3394.7,5622.2,6146.7,10482.8,17884.6,28786.5,38300.1,50177.0,103056.0,149864.5,206382.0,190971.0,224921.0,181793.8,98145.1,46948.8,25862.5,18804.3,16015.5,12345.1,15218.8,17853.2,23200.5,30134.9,52394.8,76133.0,83608.2,102994.0,113765.0,136249.0,155954.0,165080.0,145402.5,127289.5,75946.4,77076.4,46017.0,24777.8,12006.7,9298.2,5162.0,3631.8,2380.0,2366.2,2145.1,2055.9,2068.0],"peak":224921.0,"years":30,"autumn_shift_days_per_decade":-1.79,"trend_years":29}},{"type":"Feature","geometry":{"type":"Point","coordinates":[-85.7,41.3586]},"properties":{"station":"KIWX","weeks":[2068.3,2065.1,2946.8,2483.1,2452.3,1607.6,2027.2,2430.3,4499.9,7248.1,10783.0,9685.8,14856.4,18567.7,24051.1,21735.8,32990.4,153110.0,155868.0,171921.5,94369.3,34769.8,16289.8,11957.2,11245.1,11000.8,13331.0,12442.3,12777.6,15816.3,17853.6,24817.4,31719.1,48341.7,83734.0,144049.5,146363.0,185331.0,191010.8,139666.0,162217.5,75037.7,47462.4,19962.0,11306.2,8586.9,7718.3,4793.8,2840.3,2383.2,1982.4,2415.0],"peak":191010.8,"years":28,"autumn_shift_days_per_decade":-0.35,"trend_years":28}},{"type":"Feature","geometry":{"type":"Point","coordinates":[-90.08,32.3178]},"properties":{"station":"KJAN","weeks":[2077.2,1444.0,1759.9,1951.1,2267.9,2113.1,2333.1,4600.8,9747.8,11056.6,10327.9,15891.5,31389.8,37323.5,61836.7,214031.0,269622.5,429798.0,199273.0,65755.3,24968.5,10893.0,7244.7,7107.6,4898.2,5503.9,8403.7,14555.7,18452.7,25827.5,29569.7,28525.1,33183.7,75342.0,95014.1,136940.0,106206.0,124163.3,121747.0,77597.0,154170.0,76314.8,42715.7,38849.0,65967.9,12167.1,16626.7,9231.0,4919.8,2799.9,2995.1,1801.2],"peak":429798.0,"years":10,"autumn_shift_days_per_decade":null,"trend_years":null}},{"type":"Feature","geometry":{"type":"Point","coordinates":[-81.7019,30.4846]},"properties":{"station":"KJAX","weeks":[8595.7,6170.3,5208.1,5501.4,5841.1,7860.6,10556.6,22044.1,23451.4,34382.0,82665.2,77753.0,113661.0,126605.8,151696.0,324693.0,620984.0,710206.5,528256.0,180528.5,44288.2,18965.1,11893.2,12839.6,10781.0,12387.7,13721.0,18033.3,19277.5,27270.1,37009.8,49825.2,80240.6,131870.0,140024.0,200630.0,305936.5,477434.0,594247.0,594700.0,717778.0,539214.0,259217.0,277404.0,114199.0,80663.9,36961.1,24217.5,15413.7,11961.2,7252.6,6265.4],"peak":717778.0,"years":31,"autumn_shift_days_per_decade":-0.76,"trend_years":31}},{"type":"Feature","geometry":{"type":"Point","coordinates":[-83.3508,32.6757]},"properties":{"station":"KJGX","weeks":[2552.9,2464.9,2203.2,1925.6,2275.9,2370.7,2734.7,6994.1,8952.9,13472.6,16388.1,28461.4,44983.0,58262.6,73220.8,104043.0,232838.5,163116.8,103247.0,49630.4,22494.3,14717.8,9158.4,8806.2,8338.9,10073.7,11899.3,14355.7,17616.5,23891.2,28885.5,33221.6,39955.9,52470.8,78092.9,106360.0,143171.0,197970.0,271393.0,233790.0,325642.5,139396.0,113168.0,86565.6,60722.1,34451.9,19830.7,9615.5,5433.8,3702.9,2846.9,2352.3],"peak":325642.5,"years":24,"autumn_shift_days_per_decade":-0.8,"trend_years":23}},{"type":"Feature","geometry":{"type":"Point","coordinates":[-83.3131,37.5908]},"properties":{"station":"KJKL","weeks":[1178.7,983.4,666.8,1009.9,708.6,870.3,1731.2,2177.2,4443.6,6096.7,7096.8,8631.0,16437.6,19502.8,24119.8,55241.0,118294.0,257923.5,335409.0,180174.5,67736.8,17440.0,10673.3,11941.3,12175.2,9995.1,10580.4,9980.3,10458.9,12332.0,19768.4,34174.9,48601.5,87235.9,107012.5,185294.0,307713.0,378739.0,295466.0,244829.5,164706.0,80459.6,83505.6,51358.3,16568.2,6705.4,3870.7,3288.3,1779.0,1241.0,712.9,937.9],"peak":378739.0,"years":29,"autumn_shift_days_per_decade":0.04,"trend_years":26}},{"type":"Feature","geometry":{"type":"Point","coordinates":[-101.8142,33.6541]},"properties":{"station":"KLBB","weeks":[6259.7,5444.3,5312.9,5722.1,5232.5,4610.5,5366.6,6640.2,6907.3,8692.2,13577.4,20475.0,24060.3,30217.2,64661.1,120005.4,174274.0,254445.0,179050.5,84674.2,47048.0,37821.2,32432.7,31541.1,24825.4,26852.5,22483.1,18845.3,24933.1,31568.1,34677.6,43578.8,36193.4,45087.7,46740.4,57407.2,60492.5,113108.0,215100.0,96645.6,109808.0,69490.7,53612.9,43451.6,28682.0,17287.8,11871.8,7670.9,8153.6,7497.6,7381.1,7302.2],"peak":254445.0,"years":31,"autumn_shift_days_per_decade":1.19,"trend_years":31}},{"type":"Feature","geometry":{"type":"Point","coordinates":[-93.2159,30.1253]},"properties":{"station":"KLCH","weeks":[14016.9,12851.8,13241.0,10953.6,10509.1,9273.2,9874.8,11973.6,13791.7,13491.7,19616.9,26030.8,42246.4,56399.4,77382.1,147067.0,209494.0,187820.0,154096.0,60026.1,29450.3,18217.2,16009.7,18017.7,18772.0,21997.2,21443.1,27170.5,32477.0,46536.3,49689.2,44083.2,63038.8,79682.1,106207.5,126502.0,126776.0,121427.5,154087.5,113826.5,154479.5,128147.0,95768.5,98165.4,96971.4,52133.8,40525.8,33885.1,18789.4,16095.0,17961.3,11666.1],"peak":209494.0,"years":29,"autumn_shift_days_per_decade":-0.74,"trend_years":27}},{"type":"Feature","geometry":{"type":"Point","coordinates":[-124.1067,47.1169]},"properties":{"station":"KLGX","weeks":[2440.3,3128.5,3423.4,2678.8,1945.3,2077.5,2033.1,3271.1,2989.2,4249.8,7901.0,9513.1,8590.3,14423.2,15407.5,47201.8,22196.0,62969.8,52065.8,22488.2,11752.2,9548.8,3870.5,1182.4,1429.1,1179.0,1739.5,1796.3,2542.4,5556.1,7326.6,9307.7,16466.5,23216.5,15685.0,42811.8,73121.8,49944.5,76120.1,67633.8,33031.8,13895.0,10840.0,7183.5,4732.2,6976.9,4271.2,6241.2,3268.4,2863.6,4280.4,2454.3],"peak":76120.1,"years":15,"autumn_shift_days_per_decade":-3.28,"trend_years":15}},{"type":"Feature","geometry":{"type":"Point","coordinates":[-89.8254,30.3367]},"properties":{"station":"KLIX","weeks":[4106.6,2952.8,3375.2,3193.4,2936.2,2989.0,4213.6,6081.0,7109.1,8886.6,14934.4,21342.4,31429.7,40746.9,57929.9,86994.0,178344.5,111866.5,69929.3,24408.4,10185.4,8421.6,10236.6,11549.5,11064.6,11396.0,12869.2,18789.2,24392.7,28929.8,37025.4,42119.2,35645.0,61214.4,71439.1,85687.9,81429.1,76224.1,121468.0,97236.8,109147.5,74565.7,47262.7,44683.2,36489.4,25476.1,13791.2,13483.2,7984.9,6174.9,5813.0,3920.8],"peak":178344.5,"years":29,"autumn_shift_days_per_decade":1.56,"trend_years":29}},{"type":"Feature","geometry":{"type":"Point","coordinates":[-100.5762,41.9579]},"properties":{"station":"KLNX","weeks":[486.0,525.3,442.2,667.9,682.8,496.4,874.0,745.6,2249.9,2240.4,4580.3,4050.2,4590.0,7630.1,11369.5,15614.5,47428.9,170058.0,182907.0,150402.0,56582.2,29752.8,20399.2,19941.5,16164.7,18180.2,17572.7,24735.6,46664.4,33115.0,34122.0,24346.3,23926.9,31274.0,43786.0,50692.6,71283.5,113115.5,204269.5,47545.4,69276.1,22213.4,10616.0,10001.7,3814.5,2430.9,1316.8,1138.2,731.9,616.8,468.3,578.9],"peak":204269.5,"years":30,"autumn_shift_days_per_decade":-0.72,"trend_years":30}},{"type":"Feature","geometry":{"type":"Point","coordinates":[-88.0844,41.6044]},"properties":{"station":"KLOT","weeks":[2857.7,3146.7,2430.3,2356.9,2961.2,2500.3,2655.7,2875.9,3672.4,5453.1,13417.6,12219.9,25474.0,28638.1,36425.3,51294.3,50921.5,134442.0,200899.0,208792.0,124889.0,34026.7,17280.1,13701.4,12355.4,11797.8,11655.1,12885.5,12826.1,12721.9,14310.2,17080.6,23610.5,41641.4,107492.0,185529.0,209704.0,155082.0,222027.0,107217.6,129387.0,72568.3,42623.7,38448.3,15321.7,15013.2,11261.0,6661.6,4154.2,3543.8,2499.9,3617.0],"peak":222027.0,"years":31,"autumn_shift_days_per_decade":-1.08,"trend_years":31}},{"type":"Feature","geometry":{"type":"Point","coordinates":[-116.8027,40.7396]},"properties":{"station":"KLRX","weeks":[318.2,306.1,197.3,267.8,318.8,316.4,451.1,473.5,869.4,819.1,1212.8,878.8,979.0,1418.8,2280.4,2836.3,3720.3,7049.4,4213.9,5384.4,3123.5,4131.2,1910.6,1662.2,2496.7,2307.6,2017.2,1881.4,1824.1,2258.6,4141.7,4377.5,4791.2,7557.3,6362.9,11777.5,9765.0,8872.1,10579.5,7575.9,5164.7,2360.8,1247.1,869.8,558.1,345.3,333.1,347.5,219.4,370.6,257.5,333.9],"peak":11777.5,"years":26,"autumn_shift_days_per_decade":-0.52,"trend_years":22}},{"type":"Feature","geometry":{"type":"Point","coordinates":[-90.6828,38.6986]},"properties":{"station":"KLSX","weeks":[5875.9,4614.5,4457.8,3908.5,4291.1,3623.0,5113.6,7206.9,9387.6,15415.0,17748.9,35502.0,61623.2,88911.3,52190.1,83639.1,143750.0,497190.0,660325.0,545997.0,231889.0,64611.7,47100.4,41469.8,40075.4,32652.5,30032.4,31288.0,35072.6,44433.7,65773.8,85117.3,99471.6,170803.0,190783.8,236508.0,204573.0,172492.0,393290.0,219965.0,245968.0,375035.0,235106.0,100436.0,58291.6,31207.3,15291.5,11846.5,8661.3,7131.4,6309.3,5066.7],"peak":660325.0,"years":31,"autumn_shift_days_per_decade":-0.53,"trend_years":30}},{"type":"Feature","geometry":{"type":"Point","coordinates":[-78.4291,33.9892]},"properties":{"station":"KLTX","weeks":[2501.6,2755.2,2507.7,1951.2,2616.0,2557.4,2439.6,3144.5,3602.4,4294.3,7155.7,7463.2,11755.7,21518.8,18168.2,41957.7,39034.9,29573.9,31257.4,10371.7,7938.3,4815.9,4190.5,4575.8,5287.4,7041.6,5029.5,7057.3,8524.4,15109.4,18371.0,23849.8,28234.4,66904.2,85034.0,120921.0,247151.0,239083.0,244119.0,312986.0,225319.5,178355.0,211112.5,167020.0,84638.7,41956.1,18807.6,10935.0,6486.4,5134.1,3593.0,2987.6],"peak":312986.0,"years":31,"autumn_shift_days_per_decade":-0.79,"trend_years":31}},{"type":"Feature","geometry":{"type":"Point","coordinates":[-85.9439,37.9753]},"properties":{"station":"KLVX","weeks":[593.0,541.2,387.8,504.4,544.1,414.1,682.0,963.3,4357.1,2299.1,7084.9,5891.8,14930.2,13724.7,28067.2,34291.8,100208.2,230792.5,227783.0,196097.0,80980.5,26299.9,16764.2,16689.5,12455.0,9613.0,9424.9,9161.2,14634.1,14976.3,20320.9,34567.3,46380.7,62462.2,82729.5,137941.4,162412.5,175751.5,223326.5,155645.0,82431.2,72080.7,68826.5,22060.3,17250.2,6292.1,4725.0,2239.2,1060.5,689.8,532.3,573.7],"peak":230792.5,"years":30,"autumn_shift_days_per_decade":0.58,"trend_years":27}},{"type":"Feature","geometry":{"type":"Point","coordinates":[-77.4875,38.9761]},"properties":{"station":"KLWX","weeks":[1762.6,1804.2,1911.1,1538.5,1510.7,1367.3,1598.2,2071.3,4310.4,11498.1,5922.2,14728.3,16467.5,26878.1,43467.0,60873.1,77145.4,248069.0,250611.0,175611.0,82361.1,17804.8,10590.0,9485.1,9785.5,9993.2,8288.9,9264.9,11828.2,12860.4,16976.1,19846.3,29281.1,56146.9,74033.0,108212.5,195981.0,155032.5,157763.0,161564.5,151761.0,148390.0,175510.0,95444.0,44183.6,16341.5,7822.6,4779.7,3282.8,2076.5,1985.7,1696.7],"peak":250611.0,"years":31,"autumn_shift_days_per_decade":1.25,"trend_years":31}},{"type":"Feature","geometry":{"type":"Point","coordinates":[-92.2622,34.8365]},"properties":{"station":"KLZK","weeks":[2690.3,2474.5,2084.8,2758.3,2372.7,2526.9,3218.9,5714.6,8608.2,14909.6,24950.3,18791.9,49475.6,75939.6,111522.2,197699.5,434449.0,707471.0,539970.5,253242.0,157344.0,44350.4,25632.7,20426.6,18081.1,17689.2,19106.5,22712.7,29389.0,38343.0,54081.5,61663.3,66943.6,92340.6,140010.5,168528.0,170205.5,138969.5,223017.0,131722.0,130806.0,160966.0,124467.5,71611.6,78533.7,35618.7,14954.1,10348.4,5158.9,4146.4,3571.2,3081.4],"peak":707471.0,"years":31,"autumn_shift_days_per_decade":-0.58,"trend_years":31}},{"type":"Feature","geometry":{"type":"Point","coordinates":[-102.1893,31.9435]},"properties":{"station":"KMAF","weeks":[2418.7,3298.3,3031.2,3017.6,2329.5,2708.4,2624.8,4564.4,7079.8,8949.0,12086.0,24894.2,38595.4,50676.1,109939.5,205748.5,237652.0,305912.5,160219.0,77528.4,48441.1,37186.8,31498.8,28219.6,21089.8,17807.9,16126.4,16782.5,18809.6,26557.8,35164.1,33501.0,37724.1,33535.8,48512.2,55844.2,78012.5,147421.5,193374.5,119606.0,165360.0,106911.0,63856.4,57893.6,26691.2,11045.9,7393.8,7736.6,3906.4,3603.0,3604.4,2588.8],"peak":305912.5,"years":31,"autumn_shift_days_per_decade":0.66,"trend_years":31}},{"type":"Feature","geometry":{"type":"Point","coordinates":[-122.7174,42.0812]},"properties":{"station":"KMAX","weeks":[256.6,324.9,217.5,227.1,277.6,245.9,900.1,789.0,932.7,2136.7,1330.7,1801.7,1619.0,2093.6,2789.3,16364.8,8918.1,21977.1,50008.7,35563.3,22703.3,11096.3,3918.6,1274.0,1409.7,1083.8,978.1,927.0,848.9,1273.3,1325.9,1412.2,1223.8,981.7,1279.0,1874.9,2241.2,6868.3,8634.7,8111.0,7368.6,5303.4,2575.8,2461.8,909.1,1027.6,732.4,440.1,351.8,340.0,358.1,350.3],"peak":50008.7,"years":29,"autumn_shift_days_per_decade":-1.61,"trend_years":29}},{"type":"Feature","geometry":{"type":"Point","coordinates":[-100.8644,48.3931]},"properties":{"station":"KMBX","weeks":[1109.1,1346.0,976.3,571.9,543.4,1078.7,896.7,637.3,828.0,1578.7,1105.0,2279.6,3423.5,9973.8,13345.0,26710.5,53603.7,161451.0,234190.0,252248.0,132838.0,36549.6,19482.0,14917.5,14661.3,14774.7,16230.6,20960.5,24408.8,31647.6,28390.5,37900.9,63742.1,55284.1,92900.9,79442.1,52794.1,81621.1,71600.9,80369.4,35990.6,60026.4,15081.2,8607.8,3605.9,1513.4,1075.2,794.5,907.2,897.6,1055.6,561.2],"peak":252248.0,"years":17,"autumn_shift_days_per_decade":-0.7,"trend_years":15}},{"type":"Feature","geometry":{"type":"Point","coordinates":[-76.8762,34.7759]},"properties":{"station":"KMHX","weeks":[2208.8,1841.6,1923.0,1658.2,1992.1,1884.2,1935.1,2035.6,2843.3,2616.4,2498.3,2797.0,4759.7,7690.6,8237.9,8781.6,12583.7,11684.5,8879.5,6057.8,4262.6,3349.3,3172.2,3413.0,2702.5,3602.1,3262.8,3753.6,5180.8,6868.6,6976.4,12429.0,12031.9,23344.7,27292.9,43736.0,88436.4,90403.4,92367.6,119097.0,105899.0,85805.4,89901.0,81017.5,31915.3,16926.2,9303.8,6862.2,4826.9,3860.1,2988.0,2444.1],"peak":119097.0,"years":31,"autumn_shift_days_per_decade":0.56,"trend_years":31}},{"type":"Feature","geometry":{"type":"Point","coordinates":[-88.5507,42.9679]},"properties":{"station":"KMKX","weeks":[886.3,929.9,556.7,681.0,638.4,533.2,639.8,972.7,1030.1,1643.6,4729.3,4591.4,16366.5,12145.8,27522.8,33205.6,39017.3,111529.9,130054.5,239775.0,118117.0,32407.8,11555.7,7452.1,6541.7,6352.9,6931.7,9017.6,10437.8,12503.5,14170.3,16052.6,19746.7,49638.5,95791.1,170287.0,166527.0,99001.8,167215.0,88962.0,93374.6,52164.7,27145.6,13731.7,10970.9,6784.7,4668.9,2264.2,1624.5,968.7,706.5,973.1],"peak":239775.0,"years":31,"autumn_shift_days_per_decade":-0.89,"trend_years":31}},{"type":"Feature","geometry":{"type":"Point","coordinates":[-80.6541,28.1132]},"properties":{"station":"KMLB","weeks":[7903.6,6739.4,5758.6,5783.4,7069.5,8447.7,7894.6,12549.2,12125.6,15083.3,22768.1,15350.3,23583.1,26987.8,30783.3,61193.2,184793.0,151378.0,127718.0,61593.6,13100.9,8972.0,7834.7,9400.4,8294.3,10122.9,9901.0,11370.7,10659.2,12801.2,13808.1,15398.4,16259.2,19646.8,29562.6,41241.7,59013.9,53833.4,93890.1,64781.1,146107.0,94148.3,43237.6,31955.2,32164.4,18050.6,12385.1,10768.8,8392.7,8975.7,6894.9,6742.1],"peak":184793.0,"years":31,"autumn_shift_days_per_decade":0.39,"trend_years":31}},{"type":"Feature","geometry":{"type":"Point","coordinates":[-88.24,30.6794]},"properties":{"station":"KMOB","weeks":[3258.2,2310.0,2274.1,2839.1,2888.3,3294.3,3781.4,3213.9,4895.5,5914.8,9504.1,17155.2,30844.4,48589.9,74462.4,103068.0,114178.5,76945.2,38800.9,15827.9,6401.3,3582.3,3839.5,4359.0,5208.7,5136.1,8643.3,9832.1,13654.0,22189.5,25814.7,33887.2,37887.4,69281.6,78474.5,120442.5,103291.0,111218.5,162994.0,155127.0,143624.0,102476.0,64096.2,54425.4,55024.2,30961.0,17192.1,12190.5,6790.6,6187.9,4694.8,3477.5],"peak":162994.0,"years":31,"autumn_shift_days_per_decade":-0.33,"trend_years":29}},{"type":"Feature","geometry":{"type":"Point","coordinates":[-93.5655,44.8489]},"properties":{"station":"KMPX","weeks":[443.3,597.4,583.2,563.9,557.5,516.3,562.4,581.1,547.5,902.5,1601.8,3258.2,10892.1,14058.7,40215.1,47130.3,62065.8,185486.5,237875.8,410892.5,312231.5,90673.7,22681.5,12366.5,11113.9,10606.7,14092.2,17399.2,23311.0,40069.3,29241.5,35681.4,56527.5,122153.5,121023.0,163742.0,99513.3,174695.5,314342.0,133849.0,155026.5,94578.6,26721.8,19698.7,12318.4,4910.2,2749.7,1306.4,893.5,940.8,654.1,638.3],"peak":410892.5,"years":31,"autumn_shift_days_per_decade":0.44,"trend_years":30}},{"type":"Feature","geometry":{"type":"Point","coordinates":[-87.5483,46.5311]},"properties":{"station":"KMQT","weeks":[559.0,593.7,607.0,596.1,445.0,719.7,556.4,354.8,295.6,322.5,410.2,461.9,577.2,1813.7,4611.0,7098.5,12393.4,23919.2,47487.8,59844.2,67189.9,22666.7,10883.1,5161.8,4476.1,3713.8,4563.2,5400.6,5692.8,5979.7,5995.9,5930.8,8589.8,15999.1,27652.0,48192.4,59581.2,35238.6,29767.5,20429.9,11617.2,7205.8,2928.3,2494.8,1620.9,719.5,969.6,869.7,452.3,570.7,569.9,690.6],"peak":67189.9,"years":30,"autumn_shift_days_per_decade":0.52,"trend_years":30}},{"type":"Feature","geometry":{"type":"Point","coordinates":[-83.4019,36.1686]},"properties":{"station":"KMRX","weeks":[1317.9,1163.9,1092.6,1375.7,1295.9,1153.5,1725.4,2662.8,3214.8,6589.2,5608.5,8094.0,13232.8,16662.0,24524.1,62473.2,111328.0,171169.0,213484.2,102101.6,41809.5,12241.5,8577.2,8264.4,8051.2,8123.2,7092.7,8698.2,8607.5,10466.0,14152.2,24483.3,43066.7,60591.9,92811.9,118150.5,201469.0,229728.0,241367.0,224256.0,179013.0,96645.1,70006.7,59476.0,27987.5,9141.8,5308.6,2816.5,1857.5,1713.2,1111.2,1115.9],"peak":241367.0,"years":31,"autumn_shift_days_per_decade":-0.14,"trend_years":31}},{"type":"Feature","geometry":{"type":"Point","coordinates":[-113.9862,47.041]},"properties":{"station":"KMSX","weeks":[571.3,379.1,473.2,358.1,400.8,437.6,438.6,422.2,283.6,339.6,364.5,580.8,688.9,458.1,630.6,628.0,797.1,1216.6,1246.2,1788.0,1447.2,1093.0,691.2,503.1,478.8,730.1,873.2,1566.1,1491.4,2190.7,2659.4,3744.2,10295.9,14948.1,24934.9,42139.0,29064.5,22701.7,15097.9,4748.3,2987.5,1202.9,620.6,615.3,782.9,523.5,484.0,490.8,243.3,689.3,516.4,480.7],"peak":42139.0,"years":29,"autumn_shift_days_per_decade":-2.21,"trend_years":26}},{"type":"Feature","geometry":{"type":"Point","coordinates":[-112.4478,41.2628]},"properties":{"station":"KMTX","weeks":[403.7,487.9,390.3,346.5,377.4,312.9,379.3,649.2,513.1,1217.2,2014.1,1372.9,1041.9,1866.0,2045.7,3774.0,5019.7,15007.9,15804.3,26118.7,9437.3,10169.6,3931.0,2317.5,2428.9,2616.0,2458.7,2432.2,2795.2,5471.6,8580.4,11241.5,16124.9,18022.2,27768.8,37827.1,37065.0,44184.1,36769.6,20791.5,12310.3,5970.6,2059.7,1124.3,715.6,521.5,473.9,413.1,353.9,570.0,487.1,336.5],"peak":44184.1,"years":30,"autumn_shift_days_per_decade":-1.66,"trend_years":29}},{"type":"Feature","geometry":{"type":"Point","coordinates":[-121.8984,37.1552]},"properties":{"station":"KMUX","weeks":[507.4,405.9,446.1,462.0,503.4,543.8,748.2,680.7,1858.6,1327.6,2091.7,3261.3,3294.0,7629.0,13019.2,40280.1,45926.5,60536.5,82335.1,36280.3,16846.7,12935.4,2603.3,2272.7,1223.1,949.9,724.4,733.1,948.3,1311.6,1465.0,1798.2,1743.0,2239.2,2696.1,4333.4,7870.4,10875.5,10347.2,10304.7,9883.1,6011.6,2942.9,1971.7,1529.6,757.5,762.7,663.4,474.1,475.4,529.0,624.0],"peak":82335.1,"years":27,"autumn_shift_days_per_decade":-1.46,"trend_years":22}},{"type":"Feature","geometry":{"type":"Point","coordinates":[-97.3256,47.5278]},"properties":{"station":"KMVX","weeks":[474.9,428.2,566.6,399.0,456.4,398.6,374.5,415.7,372.8,480.1,473.4,1160.3,2334.8,6279.9,30600.0,18440.8,62930.8,107876.0,151058.0,339548.5,210325.0,69304.7,22849.9,9071.0,5145.6,6366.8,7402.2,10479.2,17949.7,24992.0,28823.9,34528.8,53774.8,70400.6,90654.8,88413.8,102805.4,105956.8,181032.0,130760.5,79212.3,55939.7,15872.6,8921.3,3359.7,1275.7,905.1,637.2,706.5,636.3,592.4,485.4],"peak":339548.5,"years":30,"autumn_shift_days_per_decade":0.1,"trend_years":30}},{"type":"Feature","geometry":{"type":"Point","coordinates":[-85.7897,32.5367]},"properties":{"station":"KMXX","weeks":[2892.2,1713.6,1883.6,3058.6,2164.4,3079.3,3486.3,4747.3,6668.9,5289.0,7976.1,10972.1,54679.2,64691.4,94995.6,154407.0,246687.8,124302.0,87756.9,35201.6,14657.5,8766.7,8338.8,7810.7,7813.1,10085.2,10315.0,13977.7,18056.4,24140.9,31202.7,36648.2,37229.3,87584.6,78980.1,144913.0,134121.0,248713.0,215826.0,233537.0,192241.0,125271.8,59945.2,84197.5,41966.9,38649.9,14689.6,10298.6,4640.5,4572.2,2812.4,3611.2],"peak":248713.0,"years":17,"autumn_shift_days_per_decade":-2.56,"trend_years":16}},{"type":"Feature","geometry":{"type":"Point","coordinates":[-117.0418,32.919]},"properties":{"station":"KNKX","weeks":[503.1,560.0,559.4,955.4,990.7,1196.1,1958.7,2260.7,4068.2,8157.6,21843.4,30382.5,60004.9,79586.2,168369.0,223862.5,244994.2,255034.8,239942.0,82788.1,22103.7,7894.8,2826.5,1219.5,882.0,1009.5,1503.9,2955.0,4875.9,7534.6,10881.9,15923.8,19071.6,23174.3,29816.5,37191.2,51911.6,55319.9,58480.6,43488.3,30731.2,17017.2,7911.0,4515.0,2531.3,1487.9,956.5,926.8,877.5,589.8,597.0,673.2],"peak":255034.8,"years":30,"autumn_shift_days_per_decade":-0.35,"trend_years":30}},{"type":"Feature","geometry":{"type":"Point","coordinates":[-89.8733,35.3447]},"properties":{"station":"KNQA","weeks":[4602.0,4138.0,4087.2,5683.4,4085.5,3071.3,5063.8,6543.8,12901.7,14098.3,17581.5,21514.2,22356.8,42122.8,74498.0,231154.5,446498.0,524669.5,444177.8,251839.0,124296.0,35962.4,19953.1,17643.4,16591.3,15544.1,16582.2,20738.6,29656.3,36240.8,55858.8,65825.1,81310.1,98067.1,113009.0,163162.0,166668.0,163692.5,226343.0,136770.0,181390.0,167399.0,130534.0,81578.1,74010.4,32163.8,19599.9,12731.7,8701.0,5572.6,5195.3,6816.0],"peak":524669.5,"years":30,"autumn_shift_days_per_decade":-1.33,"trend_years":30}},{"type":"Feature","geometry":{"type":"Point","coordinates":[-96.3668,41.3204]},"properties":{"station":"KOAX","weeks":[2536.2,2675.9,2563.6,2105.2,2490.4,2268.8,3351.0,4752.1,5736.8,15111.2,19772.3,19283.5,26271.0,41628.4,59738.2,54869.0,95194.1,242867.0,358767.0,430301.5,224864.8,93640.2,40301.5,28251.8,22766.6,23819.1,25866.5,35288.0,53949.9,52798.3,64217.3,82938.6,84034.9,90455.2,105237.0,100390.6,89624.5,140662.0,261302.0,128877.0,300936.5,154948.0,109842.0,60557.8,38713.0,30687.9,13812.3,7336.0,4282.0,4446.9,2702.4,3166.8],"peak":430301.5,"years":31,"autumn_shift_days_per_decade":0.15,"trend_years":31}},{"type":"Feature","geometry":{"type":"Point","coordinates":[-86.5625,36.2472]},"properties":{"station":"KOHX","weeks":[3565.3,3821.4,4374.5,4177.2,3682.8,3108.5,4762.5,8812.2,5899.4,9065.7,12923.2,18429.2,22194.2,24743.2,50073.1,116284.5,291649.0,413170.5,464848.8,221911.0,97361.2,35721.2,21910.8,20525.5,19639.5,17059.8,17910.0,21359.6,22992.4,27053.9,40460.7,62075.0,81001.1,91669.2,123706.0,212353.5,238079.0,251874.0,339299.5,273454.2,143391.5,115714.0,156116.0,106758.0,60842.4,25384.1,17622.4,10159.0,7299.1,5243.0,3439.9,3635.9],"peak":464848.8,"years":30,"autumn_shift_days_per_decade":-0.75,"trend_years":30}},{"type":"Feature","geometry":{"type":"Point","coordinates":[-72.8639,40.8655]},"properties":{"station":"KOKX","weeks":[950.5,668.8,795.2,861.1,619.8,761.9,837.1,846.4,964.6,1068.9,1252.7,1369.8,2478.7,2208.0,5115.3,3133.5,4982.0,11333.3,22420.5,24972.0,18470.2,6065.2,2679.3,1920.2,2270.4,2317.3,2531.6,2511.4,3555.7,4165.1,4841.1,7579.1,9973.5,15454.0,19756.7,26310.5,34114.3,35710.8,24651.2,41540.5,32696.0,36112.2,38911.3,18248.5,10380.0,5294.8,3425.5,2129.6,1370.5,1287.6,866.7,830.6],"peak":41540.5,"years":31,"autumn_shift_days_per_decade":-0.12,"trend_years":30}},{"type":"Feature","geometry":{"type":"Point","coordinates":[-117.6268,47.6804]},"properties":{"station":"KOTX","weeks":[680.6,770.0,601.1,660.4,640.0,621.5,938.7,848.3,1457.1,2981.6,5801.4,4920.0,4407.6,5161.7,6097.1,11380.0,23919.2,44022.3,27837.3,25605.8,19403.8,14444.0,5632.7,4529.1,4039.3,3564.7,4121.3,4765.5,6941.7,10101.5,15981.0,23660.6,45760.5,49340.0,61845.1,109063.0,94547.4,92450.2,73982.9,35279.6,18418.5,5483.3,3611.3,2721.8,1382.8,1014.1,878.3,651.0,586.1,659.2,819.3,576.7],"peak":109063.0,"years":26,"autumn_shift_days_per_decade":-0.7,"trend_years":23}},{"type":"Feature","geometry":{"type":"Point","coordinates":[-88.7719,37.0683]},"properties":{"station":"KPAH","weeks":[3390.1,3294.8,3657.8,3716.7,3223.1,3804.5,3682.2,6988.9,17785.8,8984.3,13799.2,15032.2,29260.0,35462.2,66462.6,128173.0,306375.0,579997.0,637274.0,288891.0,162363.5,60388.2,32080.6,28255.4,24687.9,19032.6,20754.0,22966.6,33746.9,44380.2,50603.0,87851.3,82142.9,115445.5,148458.0,181655.5,182832.0,193276.0,330187.2,163232.0,168788.0,174847.0,98212.2,66650.6,44775.2,21437.8,13140.6,9122.1,6405.9,3359.1,3660.2,3835.2],"peak":637274.0,"years":31,"autumn_shift_days_per_decade":-2.99,"trend_years":31}},{"type":"Feature","geometry":{"type":"Point","coordinates":[-80.218,40.5317]},"properties":{"station":"KPBZ","weeks":[959.9,1094.1,677.6,977.7,920.2,693.2,1198.6,975.6,2110.6,3782.5,4063.8,4774.9,11547.0,9308.9,13631.9,18674.9,25620.1,92347.2,210967.5,180454.0,98445.6,24616.8,9753.7,6581.0,6765.8,6705.6,6499.9,7117.6,9963.1,10702.2,12999.5,17251.9,24183.7,38127.6,77621.5,111016.0,162982.0,162193.5,112920.0,96369.0,72957.5,43156.6,38782.4,17918.7,10215.3,4811.2,3574.7,2162.9,1533.4,1234.5,1217.9,1242.0],"peak":210967.5,"years":31,"autumn_shift_days_per_decade":-0.32,"trend_years":30}},{"type":"Feature","geometry":{"type":"Point","coordinates":[-118.8529,45.6906]},"properties":{"station":"KPDT","weeks":[1842.5,2262.7,1710.5,2009.8,1776.4,1630.9,1757.3,2121.1,2637.3,3542.8,5277.5,5608.4,3965.1,5051.1,9050.4,28013.7,44696.9,25874.5,28969.3,18231.8,22527.2,14532.4,7087.5,4643.0,5591.1,4459.5,4500.3,4580.0,5413.5,8037.3,8938.0,11661.0,12031.8,23019.1,36187.0,64185.2,93153.9,101114.3,102828.5,58863.5,37759.1,16873.1,11174.5,6502.4,4858.6,3025.1,2502.1,1982.5,2410.4,2197.3,1801.4,2057.8],"peak":102828.5,"years":29,"autumn_shift_days_per_decade":1.01,"trend_years":28}},{"type":"Feature","geometry":{"type":"Point","coordinates":[-92.9761,31.1553]},"properties":{"station":"KPOE","weeks":[3863.1,3479.5,2977.1,3326.6,2871.5,2979.7,2813.0,5767.3,17383.1,17173.7,27832.1,51540.8,59631.8,71461.8,121695.5,325939.0,512541.0,603320.0,342175.5,153360.0,37229.3,11990.8,9464.1,7407.9,10845.7,11092.7,12779.6,19102.5,22414.2,29655.3,33756.1,30311.1,27218.1,70679.9,91402.4,164058.0,118916.0,96775.5,136272.0,74671.7,91061.8,100568.6,76403.1,61377.4,59696.2,44856.9,21552.3,14257.9,8290.2,4912.9,5530.9,4116.2],"peak":603320.0,"years":20,"autumn_shift_days_per_decade":-0.58,"trend_years":19}},{"type":"Feature","geometry":{"type":"Point","coordinates":[-104.1813,38.4596]},"properties":{"station":"KPUX","weeks":[220.2,203.0,189.3,174.3,153.2,169.9,221.7,346.3,430.7,564.4,857.3,1095.6,1291.1,1012.0,2540.4,4436.8,16345.9,49546.6,61557.4,44336.8,27264.6,21230.1,18419.9,12553.4,10515.9,8729.3,7511.0,10244.2,10555.3,19684.7,28165.6,36418.3,33094.7,37289.8,54833.8,77569.5,93662.3,105241.0,72432.7,41457.6,29260.8,13603.2,4654.1,2196.2,1142.4,691.7,467.0,346.6,237.3,249.8,237.0,252.7],"peak":105241.0,"years":31,"autumn_shift_days_per_decade":0.02,"trend_years":31}},{"type":"Feature","geometry":{"type":"Point","coordinates":[-78.4898,35.6655]},"properties":{"station":"KRAX","weeks":[1179.0,1514.3,915.5,879.7,1183.6,1213.8,1889.6,2351.4,4219.5,9689.8,7179.4,10884.9,17003.8,29420.2,51423.7,98232.3,177648.0,197293.0,168395.5,59548.2,19175.0,12839.8,9135.0,9360.9,7869.3,6524.0,7096.6,7918.9,12929.8,11823.7,17872.4,27736.8,41622.6,53389.6,91730.0,115413.0,177502.0,163582.0,197318.5,206073.0,175538.0,137740.0,120942.0,82739.1,48714.2,21476.5,9567.3,5882.2,2726.7,1935.4,1515.4,1149.9],"peak":206073.0,"years":31,"autumn_shift_days_per_decade":-0.48,"trend_years":31}},{"type":"Feature","geometry":{"type":"Point","coordinates":[-119.462,39.7541]},"properties":{"station":"KRGX","weeks":[264.5,201.0,240.5,228.5,289.1,333.2,396.2,284.0,579.3,604.4,573.1,634.2,542.2,716.5,1109.3,2355.4,1338.7,1755.5,1262.1,1413.3,1126.6,1925.5,1074.9,835.7,885.4,986.8,843.8,864.0,668.1,751.5,1045.1,1062.0,1049.3,1050.0,1477.0,1574.2,1563.9,3198.8,3592.5,3449.4,1551.1,1451.1,1049.6,709.1,478.9,292.4,277.2,293.9,221.0,310.2,252.7,304.5],"peak":3592.5,"years":30,"autumn_shift_days_per_decade":0.23,"trend_years":22}},{"type":"Feature","geometry":{"type":"Point","coordinates":[-108.4773,43.0661]},"properties":{"station":"KRIW","weeks":[438.5,426.0,568.4,392.0,392.4,338.7,351.9,330.5,456.0,712.7,1059.2,1060.1,731.1,955.5,1525.4,1855.6,3872.7,5174.3,9378.7,15225.3,8393.3,9039.2,5707.9,6386.7,6844.5,9721.5,5936.4,6072.4,9603.3,16423.2,16612.8,26181.3,48496.8,76045.9,80600.5,87400.6,87290.3,60030.9,31827.7,18133.1,10914.5,6440.2,3012.1,1606.9,1295.4,756.0,605.7,414.2,384.9,486.8,422.2,429.6],"peak":87400.6,"years":30,"autumn_shift_days_per_decade":0.54,"trend_years":30}},{"type":"Feature","geometry":{"type":"Point","coordinates":[-81.7228,38.3111]},"properties":{"station":"KRLX","weeks":[941.9,992.9,908.5,893.7,934.9,974.2,853.5,2134.1,2589.5,3802.7,6014.1,12946.0,16723.5,20554.1,24961.8,42170.7,80828.7,168038.0,253397.0,146661.0,63231.2,16894.7,10981.5,10102.9,9627.6,8143.9,7829.7,8299.4,10493.9,10326.7,15668.1,27153.5,38464.8,47815.5,107006.0,136160.5,300116.0,331691.0,313717.2,204911.0,162183.0,86841.6,77674.4,41049.5,19140.6,9145.1,5477.2,3017.3,1943.9,1821.0,997.1,1122.8],"peak":331691.0,"years":31,"autumn_shift_days_per_decade":0.28,"trend_years":31}},{"type":"Feature","geometry":{"type":"Point","coordinates":[-122.965,45.715]},"properties":{"station":"KRTX","weeks":[1729.8,1068.1,1263.4,1013.2,1191.7,1475.3,1991.0,2835.0,3155.2,6010.6,7009.6,8686.0,7703.8,17053.0,17116.8,54365.6,61334.0,48197.7,115079.5,64807.4,56529.2,24544.0,4548.9,3286.1,2509.1,2255.5,1797.6,2559.7,3479.1,8491.2,10633.8,12366.5,13127.2,16506.8,22156.5,34765.8,43302.6,56695.4,79381.9,44015.4,22968.6,11675.3,10358.2,6073.8,3193.9,3353.7,2238.8,1881.3,1337.6,1522.2,1812.6,1585.2],"peak":115079.5,"years":31,"autumn_shift_days_per_decade":-2.48,"trend_years":31}},{"type":"Feature","geometry":{"type":"Point","coordinates":[-112.6861,43.1056]},"properties":{"station":"KSFX","weeks":[2020.5,1392.3,1386.5,1235.3,1069.6,1061.7,1060.2,1864.7,2558.0,4555.9,7367.6,7564.6,4806.4,5863.6,8285.0,12776.2,13679.4,36663.1,32971.9,55801.3,32858.2,31734.3,15737.2,10947.7,15513.8,17640.8,14855.5,14970.1,16507.1,13876.3,18024.5,26839.8,49408.4,59778.6,79178.5,100944.3,101717.0,89993.4,74889.7,42833.6,23567.4,9927.5,5151.4,4665.9,2884.1,2592.7,2056.7,1600.6,1324.1,1560.7,1808.1,1917.3],"peak":101717.0,"years":31,"autumn_shift_days_per_decade":-3.14,"trend_years":31}},{"type":"Feature","geometry":{"type":"Point","coordinates":[-93.4004,37.2352]},"properties":{"station":"KSGF","weeks":[2215.9,1888.6,2481.0,1781.9,2195.1,2919.2,2840.8,4940.9,7093.7,15847.0,21183.2,15023.1,44070.4,40172.2,56855.8,98567.1,111823.0,424212.0,601326.0,342697.0,163281.0,63303.2,38585.9,30933.3,31395.8,25942.9,24115.8,32281.7,37244.1,49144.4,62460.2,70088.2,61963.3,73753.1,108460.0,106619.0,100722.6,121507.0,164884.0,124739.0,93844.1,151439.0,103374.0,63144.4,52116.8,20695.1,11016.2,7440.9,3977.8,2714.8,2229.5,2625.1],"peak":601326.0,"years":31,"autumn_shift_days_per_decade":-0.32,"trend_years":31}},{"type":"Feature","geometry":{"type":"Point","coordinates":[-93.8413,32.4508]},"properties":{"station":"KSHV","weeks":[4106.0,3629.3,3458.5,4083.6,3906.4,3803.1,5511.5,8048.3,14450.6,22066.2,45148.3,58145.5,73421.1,99842.9,120316.0,358164.0,651348.0,991626.5,674197.0,370939.0,144457.0,34544.3,20668.4,19538.8,19735.5,21417.1,25800.8,35378.4,42565.1,47035.0,54402.7,49656.1,76764.4,78852.4,136466.5,168840.0,136108.5,134375.0,173476.0,123346.5,116042.5,109480.5,106782.0,88967.9,96725.0,48752.0,27430.0,11961.8,7819.4,6476.3,4827.5,4280.5],"peak":991626.5,"years":31,"autumn_shift_days_per_decade":1.3,"trend_years":30}},{"type":"Feature","geometry":{"type":"Point","coordinates":[-100.4925,31.3713]},"properties":{"station":"KSJT","weeks":[2819.4,2509.7,3189.4,2784.9,3386.1,3533.2,5442.2,6819.7,10393.8,19088.9,33017.5,37385.0,67658.5,91917.3,140041.0,239772.5,470499.0,420941.0,226443.0,97157.0,60070.8,42704.8,40887.7,33175.4,27833.4,30207.5,30962.4,28094.4,36488.1,52444.5,64182.3,52630.5,48174.7,63280.1,70574.6,66223.8,78147.2,89081.9,117861.5,127654.0,150230.5,115912.0,79372.4,62954.8,39236.9,21249.9,13080.0,8017.3,4630.3,3751.5,3882.6,3100.2],"peak":470499.0,"years":28,"autumn_shift_days_per_decade":0.72,"trend_years":28}},{"type":"Feature","geometry":{"type":"Point","coordinates":[-117.636,33.8177]},"properties":{"station":"KSOX","weeks":[1416.5,1303.6,1229.9,1334.0,1373.3,1394.8,1863.9,2291.1,2731.4,3941.3,7049.1,9930.9,19190.8,22707.0,49957.2,77753.0,88155.8,89107.6,109783.0,57220.8,16307.0,7150.6,3093.3,2369.0,1845.2,1736.4,2220.5,3212.3,5727.4,10259.6,12203.4,14039.9,14917.9,13035.4,22801.3,25044.6,25753.0,21666.3,29856.9,24216.8,19305.1,14538.3,6442.2,3677.5,2648.0,2106.4,1609.8,1490.2,1470.6,1440.2,1450.2,1507.7],"peak":109783.0,"years":29,"autumn_shift_days_per_decade":-1.48,"trend_years":28}},{"type":"Feature","geometry":{"type":"Point","coordinates":[-94.3619,35.2904]},"properties":{"station":"KSRX","weeks":[1587.4,1328.4,1210.9,1372.8,1472.9,1666.8,2035.3,3921.8,6290.7,13079.5,16370.7,20604.3,50615.4,57964.9,85852.2,187848.5,323179.5,461343.5,519026.2,306693.5,142624.0,53004.9,26793.1,20317.1,18509.5,16685.9,17667.0,22622.9,26476.6,41577.6,59310.5,64286.8,70815.4,86857.7,145356.0,128197.5,116983.0,96801.2,218293.0,111471.5,82147.9,119543.0,104737.8,83067.8,67135.8,22002.2,12578.0,6490.0,3890.3,2469.4,1883.6,1792.6],"peak":519026.2,"years":28,"autumn_shift_days_per_decade":-0.5,"trend_years":28}},{"type":"Feature","geometry":{"type":"Point","coordinates":[-82.4018,27.7055]},"properties":{"station":"KTBW","weeks":[3090.8,3516.5,3419.7,4365.2,4353.4,5221.5,6793.0,9307.8,10753.7,14807.9,22890.9,23370.9,39514.7,46597.1,45031.1,70312.1,156416.0,107304.0,35888.4,24317.1,15426.8,9240.8,10935.5,11775.6,12471.9,13126.0,15221.7,15433.4,20211.9,20357.5,23748.8,24358.6,25060.2,35293.0,35757.1,65419.7,67199.2,99754.7,117108.0,152666.0,170296.2,101051.6,49192.0,50036.2,28528.8,17766.5,11086.6,9210.8,5785.5,5654.2,3901.1,4192.0],"peak":170296.2,"years":31,"autumn_shift_days_per_decade":-0.61,"trend_years":28}},{"type":"Feature","geometry":{"type":"Point","coordinates":[-111.3853,47.4596]},"properties":{"station":"KTFX","weeks":[1484.9,1121.9,877.3,937.7,859.5,849.9,806.1,771.0,821.2,756.4,1116.6,1650.7,1143.3,1406.2,2126.6,2492.5,3375.5,7952.1,8529.5,12804.3,8605.5,6419.2,3303.2,2436.1,3285.4,4963.6,6384.8,6285.1,13190.7,14121.3,16943.0,18405.3,27013.9,36363.9,54992.5,69844.2,61137.2,38384.3,22163.2,8773.0,6065.9,4733.2,2481.1,2658.6,1837.7,1681.2,1309.0,1205.3,1262.8,1153.1,1484.8,1378.2],"peak":69844.2,"years":31,"autumn_shift_days_per_decade":-0.29,"trend_years":31}},{"type":"Feature","geometry":{"type":"Point","coordinates":[-84.3289,30.3976]},"properties":{"station":"KTLH","weeks":[2848.2,2548.4,2811.7,2796.9,2610.9,3037.6,3312.9,5422.2,4657.7,9146.1,10315.6,25950.2,34847.3,44667.1,50652.7,53844.0,66955.8,43025.3,23332.0,14525.5,10621.2,8409.5,9051.8,9643.3,9181.6,9699.6,11823.5,14074.9,20093.2,24037.4,33302.5,40965.0,36304.9,50527.5,53523.5,89942.1,111489.0,123330.4,204256.0,200710.0,256332.8,141507.5,61620.3,47585.1,37422.1,21852.1,14152.9,9575.1,5026.0,4120.1,4782.8,3202.3],"peak":256332.8,"years":31,"autumn_shift_days_per_decade":0.31,"trend_years":31}},{"type":"Feature","geometry":{"type":"Point","coordinates":[-97.2778,35.3334]},"properties":{"station":"KTLX","weeks":[1379.1,1344.2,1420.1,1287.0,1118.8,1329.6,2205.0,3182.5,5463.7,7893.3,13358.1,13283.1,34752.2,29772.8,69335.1,96125.7,182282.0,424057.0,349286.0,197192.0,124845.0,57216.8,31994.7,29188.6,32398.6,28766.0,32026.3,40943.7,55403.2,74313.4,98034.9,98250.4,57684.8,56718.6,103782.0,100424.3,81157.8,75462.2,149424.0,86491.9,91560.2,103203.0,86422.7,67389.3,32225.8,15088.4,10490.8,5243.7,2533.1,2261.9,1813.1,1592.2],"peak":424057.0,"years":31,"autumn_shift_days_per_decade":-4.16,"trend_years":30}},{"type":"Feature","geometry":{"type":"Point","coordinates":[-96.2326,38.9969]},"properties":{"station":"KTWX","weeks":[956.8,1072.8,1036.1,1105.3,1133.7,1021.8,1466.3,2016.6,3908.3,4004.2,8769.8,16648.4,14865.7,19817.1,29229.4,41027.8,74862.9,255745.2,357265.0,253700.5,157995.0,52160.8,31394.3,26288.0,25916.0,21082.6,20419.3,25557.6,34017.9,46387.8,56510.1,52566.8,62304.8,64194.3,86334.6,74401.6,48841.5,62787.2,157968.5,92850.6,131441.0,146333.5,92331.9,34467.3,42504.8,15816.4,9793.5,3550.0,2394.8,1362.4,1280.1,1097.4],"peak":357265.0,"years":31,"autumn_shift_days_per_decade":-1.31,"trend_years":29}},{"type":"Feature","geometry":{"type":"Point","coordinates":[-75.6799,43.7557]},"properties":{"station":"KTYX","weeks":[2745.5,2293.0,1569.9,1340.9,2263.9,2117.9,1633.6,1614.9,1571.9,1384.2,1605.2,2618.3,4489.1,7532.9,8632.4,13161.3,16718.1,65025.4,81254.5,84218.6,72128.1,25513.4,5654.0,3369.7,3169.6,3235.7,3341.3,4026.3,6674.2,6688.6,7576.7,11248.2,17958.4,19147.8,30790.7,60865.8,81217.1,59435.8,88202.1,62204.0,71661.2,15895.1,26965.4,10778.8,7774.4,3746.4,2179.5,3110.5,2751.8,2232.2,1969.0,2661.6],"peak":88202.1,"years":25,"autumn_shift_days_per_decade":2.37,"trend_years":24}},{"type":"Feature","geometry":{"type":"Point","coordinates":[-102.83,44.1247]},"properties":{"station":"KUDX","weeks":[706.0,647.0,629.2,943.7,512.1,781.4,785.4,796.1,1631.4,1739.1,2474.4,2888.5,2216.4,5851.7,4576.4,8959.4,21521.7,93202.4,49330.6,112962.0,23393.4,14828.0,9845.0,7946.7,8634.0,10345.2,11673.6,14162.0,20905.2,20120.5,19588.5,19744.8,22041.8,29724.3,54113.2,68609.0,133956.0,110541.8,114761.2,65811.1,27457.3,14639.5,7386.9,3751.8,1877.3,1313.3,1015.6,832.0,747.3,974.1,644.5,641.2],"peak":133956.0,"years":29,"autumn_shift_days_per_decade":0.38,"trend_years":28}},{"type":"Feature","geometry":{"type":"Point","coordinates":[-98.4419,40.3208]},"properties":{"station":"KUEX","weeks":[1524.1,1803.1,1755.4,1743.2,2811.0,2656.3,4474.6,5601.0,8054.2,9361.3,15300.3,11880.8,16555.6,18171.3,31586.4,46079.1,57788.7,245614.5,159334.0,143699.5,62467.9,37794.1,30557.2,22499.3,25810.0,24391.3,22871.5,30787.7,42548.6,45578.2,39040.2,37319.8,47674.8,43725.5,46094.5,48718.2,46778.4,105667.0,154900.0,92865.3,132278.0,77643.3,29832.5,27532.8,21209.5,10595.7,10452.6,5404.6,3439.7,2440.4,2359.1,2128.7],"peak":245614.5,"years":31,"autumn_shift_days_per_decade":1.18,"trend_years":31}},{"type":"Feature","geometry":{"type":"Point","coordinates":[-83.0018,30.8903]},"properties":{"station":"KVAX","weeks":[6659.0,4101.9,3718.1,3113.9,4142.8,4374.3,7457.8,12063.6,16064.8,27544.3,30446.6,31296.7,108575.7,104300.6,135196.0,171936.5,393495.5,161491.0,120485.1,61275.4,21132.9,9461.8,10230.5,9639.6,11516.9,10854.5,11321.5,16080.6,20941.1,26222.4,26768.5,33418.4,30143.3,63805.8,55624.9,98179.9,165936.0,240253.0,232563.5,386896.0,361509.0,132225.5,94136.2,99299.9,72198.4,50221.8,28302.5,17736.0,10986.5,5930.2,5160.9,8263.5],"peak":393495.5,"years":17,"autumn_shift_days_per_decade":9.54,"trend_years":15}},{"type":"Feature","geometry":{"type":"Point","coordinates":[-120.3979,34.8385]},"properties":{"station":"KVBX","weeks":[775.5,556.3,620.1,691.1,743.9,940.6,932.9,1245.7,2026.6,2294.4,3576.7,4702.4,13754.5,20574.4,35455.2,65620.8,77857.0,91194.6,101225.0,41679.4,23585.8,7858.8,2424.7,1870.5,1536.0,1388.2,1596.2,1749.9,1866.2,3997.9,5112.3,4042.6,5471.5,5950.1,8449.1,12963.5,17246.1,19726.0,15238.6,14897.7,9377.2,7347.9,4031.8,3293.2,1866.1,1657.6,1134.9,1168.8,684.9,634.6,762.7,723.1],"peak":101225.0,"years":17,"autumn_shift_days_per_decade":-0.26,"trend_years":17}},{"type":"Feature","geometry":{"type":"Point","coordinates":[-98.1277,36.7406]},"properties":{"station":"KVNX","weeks":[3861.2,2680.6,2477.2,2317.9,2138.3,3085.2,3076.3,4965.7,6602.3,9165.0,10525.7,16190.4,25585.4,23968.5,83636.0,61278.2,167568.2,311306.0,279361.0,159875.0,87057.4,53342.3,44987.3,41140.5,47550.8,49538.9,53256.6,57654.6,67849.6,98216.6,97910.5,108761.0,88700.6,79738.7,80836.9,99931.1,68948.5,65527.4,180887.0,121824.0,150712.5,74148.5,38649.2,38333.8,29731.3,15649.5,11711.8,7345.5,5165.8,3252.8,3911.9,3792.3],"peak":311306.0,"years":29,"autumn_shift_days_per_decade":-2.35,"trend_years":26}},{"type":"Feature","geometry":{"type":"Point","coordinates":[-119.1787,34.412]},"properties":{"station":"KVTX","weeks":[201.2,212.4,256.2,293.5,283.4,320.4,426.3,615.4,785.5,1066.9,2659.6,3077.9,7694.8,11196.0,22826.7,29196.6,32670.8,48061.9,44739.9,25318.0,10942.5,3325.8,1151.1,815.5,671.4,710.6,672.5,1043.4,1707.8,2733.4,3465.1,4130.6,4309.2,3665.2,5263.8,7092.6,9291.1,7696.4,8697.7,9494.9,6978.7,5229.5,2299.8,1629.8,781.6,599.0,418.8,294.9,251.5,247.1,179.6,267.4],"peak":48061.9,"years":30,"autumn_shift_days_per_decade":3.76,"trend_years":27}},{"type":"Feature","geometry":{"type":"Point","coordinates":[-87.7245,38.2602]},"properties":{"station":"KVWX","weeks":[2578.9,2616.0,1963.2,2731.9,2714.2,2655.4,3103.6,4259.3,9040.6,6163.8,10080.8,9004.1,31353.5,22153.6,18800.6,60710.6,187683.0,276048.5,371615.5,191354.0,123415.0,38765.2,18650.5,19548.1,21559.5,15480.8,13080.8,13794.8,14800.5,21818.8,33434.0,45671.2,57300.9,76013.7,140569.0,190951.0,185517.0,170983.0,272098.0,81976.4,121516.0,81205.2,71004.0,43909.6,23160.7,8861.5,8260.1,5042.9,3948.9,2941.4,2962.1,2928.4],"peak":371615.5,"years":23,"autumn_shift_days_per_decade":-3.29,"trend_years":21}},{"type":"Feature","geometry":{"type":"Point","coordinates":[-114.6567,32.4953]},"properties":{"station":"KYUX","weeks":[5571.7,5074.3,4683.9,4262.1,5927.3,5805.9,7170.7,9578.6,11252.4,14074.8,23831.7,23964.1,34786.3,58150.8,113137.0,126999.5,136066.5,157828.5,140893.5,71279.1,29025.2,17741.8,11518.2,8660.9,8938.4,8537.0,8389.5,9942.7,10233.2,13673.1,19058.4,23211.9,31134.1,35142.6,34694.0,45752.9,65627.8,59136.8,70946.9,67579.5,55615.1,37851.9,19847.3,12372.7,8593.6,7987.9,5462.1,6298.2,7234.6,5895.4,5136.1,4989.1],"peak":157828.5,"years":28,"autumn_shift_days_per_decade":0.05,"trend_years":27}},{"type":"Feature","geometry":{"type":"Point","coordinates":[-161.8764,60.7919]},"properties":{"station":"PABC","weeks":[796.9,826.8,517.3,733.9,376.2,477.0,482.2,609.6,467.2,428.7,242.4,460.0,351.9,238.0,435.8,493.0,2274.2,1410.2,5148.9,6360.2,2081.4,1896.3,843.8,636.1,949.4,632.1,1089.1,985.1,709.7,1714.3,3019.7,5465.5,6466.4,6530.6,5894.7,2673.9,2686.9,1225.8,1595.7,1442.1,1052.4,934.5,711.8,554.0,842.8,679.7,514.0,641.8,652.3,535.4,882.6,620.3],"peak":6530.6,"years":13,"autumn_shift_days_per_decade":null,"trend_years":null}},{"type":"Feature","geometry":{"type":"Point","coordinates":[-135.5292,56.8528]},"properties":{"station":"PACG","weeks":[2140.0,3648.8,3842.0,6437.4,1571.5,2754.7,2873.8,1941.7,1331.2,1663.8,3377.4,1506.2,2403.8,3250.5,3753.5,6809.6,11737.2,14999.5,8707.4,6438.5,2584.8,2929.1,2807.5,902.8,533.2,583.3,873.3,815.6,1329.9,1375.4,2624.6,3945.4,5065.4,5930.5,9571.8,7258.5,8086.5,7898.5,11542.8,5224.8,4877.0,4640.2,3201.0,3427.4,4441.5,4606.3,3220.8,4113.0,7173.9,2713.1,2846.5,5475.0],"peak":14999.5,"years":14,"autumn_shift_days_per_decade":null,"trend_years":null}},{"type":"Feature","geometry":{"type":"Point","coordinates":[-165.295,64.5114]},"properties":{"station":"PAEC","weeks":[83.1,85.9,115.8,150.9,61.5,78.5,81.3,258.3,250.6,158.7,138.4,130.4,74.9,59.1,46.2,71.6,73.2,77.8,242.3,374.1,273.7,120.0,89.2,83.4,27.5,38.9,54.7,48.9,105.9,87.2,172.6,472.7,1123.8,1685.4,894.3,314.7,229.4,144.7,154.9,525.1,100.9,148.8,224.6,201.4,199.7,282.1,133.2,87.5,218.7,112.0,86.0,321.9],"peak":1685.4,"years":13,"autumn_shift_days_per_decade":null,"trend_years":null}},{"type":"Feature","geometry":{"type":"Point","coordinates":[-151.3515,60.7259]},"properties":{"station":"PAHG","weeks":[510.9,885.8,767.3,430.8,381.1,404.7,377.9,354.4,530.7,412.3,487.1,273.8,535.0,361.2,547.3,580.7,1897.1,2885.0,6886.3,7643.2,4170.8,3323.4,1603.5,893.9,331.4,333.9,629.4,1071.0,992.6,653.6,1391.3,5231.3,29120.6,38218.2,36854.5,18891.0,12042.5,4492.9,3182.0,1679.8,1387.3,1508.9,1673.2,938.8,919.9,766.0,1165.4,854.2,885.4,969.9,634.3,835.0],"peak":38218.2,"years":16,"autumn_shift_days_per_decade":null,"trend_years":null}},{"type":"Feature","geometry":{"type":"Point","coordinates":[-146.3034,59.4608]},"properties":{"station":"PAIH","weeks":[2865.0,4447.2,3494.2,2826.2,1470.1,3465.2,2127.0,4156.9,2481.4,1281.3,1279.7,796.2,422.2,1117.4,880.3,582.0,597.1,1273.9,1294.7,618.6,527.6,467.2,280.3,456.0,175.5,312.0,236.2,214.3,314.6,289.7,350.6,693.4,635.6,2038.8,5027.6,3300.5,5178.2,3507.6,1514.3,2695.9,2808.1,1595.5,3799.9,1384.1,4407.1,2495.1,4195.4,3466.3,3859.8,4148.9,7044.5,5887.0],"peak":7044.5,"years":15,"autumn_shift_days_per_decade":null,"trend_years":null}},{"type":"Feature","geometry":{"type":"Point","coordinates":[-156.6294,58.6794]},"properties":{"station":"PAKC","weeks":[1234.2,1340.8,1126.2,1526.2,769.0,934.7,1288.7,1937.1,853.2,964.8,467.3,951.4,775.8,690.4,1118.9,1989.4,3564.9,2672.1,5181.3,5399.5,5472.4,5261.9,2311.7,962.3,615.8,699.2,896.0,1162.1,1772.2,2618.2,3338.3,11130.3,12587.8,11972.2,12513.1,5842.7,3513.0,3319.7,2368.2,2372.7,2599.7,1743.4,1572.7,1614.3,1266.0,1128.9,970.7,1174.5,1060.5,1009.8,1287.1,1261.0],"peak":12587.8,"years":14,"autumn_shift_days_per_decade":null,"trend_years":null}},{"type":"Feature","geometry":{"type":"Point","coordinates":[-147.5014,65.0351]},"properties":{"station":"PAPD","weeks":[289.6,353.7,269.1,352.7,239.9,167.4,321.6,276.8,242.1,155.8,240.8,313.9,257.5,245.6,154.4,207.1,638.2,2334.5,17187.8,15510.4,9122.6,2961.4,411.4,136.3,112.2,79.9,208.9,209.4,406.6,439.2,1400.9,12498.6,31979.9,47510.9,67700.9,39287.8,15515.4,4624.0,2275.9,1435.5,1609.0,1521.5,871.6,316.4,263.8,387.2,444.2,372.2,414.2,377.8,215.5,315.4],"peak":67700.9,"years":19,"autumn_shift_days_per_decade":-0.77,"trend_years":17}},{"type":"Feature","geometry":{"type":"Point","coordinates":[144.8111,13.4558]},"properties":{"station":"PGUA","weeks":[3012.2,1664.8,3566.0,1523.3,2329.2,1565.6,2145.0,3351.1,2401.5,1266.6,2773.8,697.8,1403.4,1110.9,1183.7,1249.0,1271.4,960.8,939.9,691.9,619.2,1193.2,601.6,775.4,801.7,752.2,993.8,630.1,639.9,544.3,753.2,578.2,715.8,623.5,616.2,780.0,1323.0,677.8,602.2,874.8,859.0,1204.3,1158.8,1658.3,1154.7,1169.5,1735.4,2201.9,2475.6,2431.0,4100.9,3294.4],"peak":4100.9,"years":18,"autumn_shift_days_per_decade":-7.76,"trend_years":17}},{"type":"Feature","geometry":{"type":"Point","coordinates":[-159.5525,21.8939]},"properties":{"station":"PHKI","weeks":[386.1,234.4,549.7,821.6,700.7,615.6,619.1,1020.8,1256.3,989.5,664.9,771.3,819.6,1216.5,1092.8,785.5,952.6,1225.5,828.3,813.3,543.8,687.9,1154.2,1018.1,1363.5,905.9,1357.6,1470.7,1577.0,1404.5,1453.7,1439.1,1061.9,1207.8,974.3,719.0,940.5,1248.6,1058.2,833.3,820.2,904.0,517.0,792.5,1649.9,1448.4,1173.5,2456.8,967.2,1145.0,1763.3,762.4],"peak":2456.8,"years":22,"autumn_shift_days_per_decade":5.32,"trend_years":19}},{"type":"Feature","geometry":{"type":"Point","coordinates":[-155.7778,20.1253]},"properties":{"station":"PHKM","weeks":[305.7,158.4,247.4,269.8,247.3,213.6,189.2,237.1,290.3,238.8,230.0,249.5,209.5,325.7,185.1,246.6,196.4,297.7,193.1,124.7,189.2,197.0,240.5,239.5,319.4,215.2,250.7,285.6,285.7,258.1,224.1,214.6,232.2,278.1,189.6,164.7,178.0,219.4,237.0,193.9,200.5,163.1,199.5,284.7,236.6,316.5,336.6,241.7,176.8,447.1,413.2,279.2],"peak":447.1,"years":20,"autumn_shift_days_per_decade":-2.81,"trend_years":19}},{"type":"Feature","geometry":{"type":"Point","coordinates":[-157.1803,21.1328]},"properties":{"station":"PHMO","weeks":[446.5,209.9,265.0,369.6,295.2,342.6,260.2,384.2,482.8,594.1,382.2,356.5,282.7,410.1,504.7,371.3,434.4,322.4,297.1,322.9,334.5,379.2,380.0,500.1,438.7,337.9,407.5,439.1,318.2,433.6,485.4,322.5,296.8,337.4,297.6,353.5,415.0,555.3,390.8,286.1,370.8,309.0,227.0,673.9,376.7,475.9,588.6,468.5,386.4,510.1,725.6,527.8],"peak":725.6,"years":20,"autumn_shift_days_per_decade":-2.63,"trend_years":16}},{"type":"Feature","geometry":{"type":"Point","coordinates":[-155.5689,19.095]},"properties":{"station":"PHWA","weeks":[520.7,387.1,354.6,605.3,433.3,355.3,461.9,1190.8,629.2,578.6,436.4,812.2,632.6,882.9,620.7,611.7,506.6,682.2,727.9,527.6,636.2,707.9,705.7,667.5,640.2,584.4,931.3,908.3,1096.6,1004.1,888.6,969.5,830.5,828.7,621.4,402.9,586.7,805.8,713.4,645.9,638.9,511.3,578.6,599.4,820.1,1208.3,1110.9,1267.1,824.0,1538.2,1278.7,623.7],"peak":1538.2,"years":20,"autumn_shift_days_per_decade":-6.12,"trend_years":18}},{"type":"Feature","geometry":{"type":"Point","coordinates":[126.6222,35.9242]},"properties":{"station":"RKJK","weeks":[3267.8,2273.8,1883.0,1825.4,2241.0,1680.9,1939.3,2451.9,3326.8,3336.6,5759.1,8219.8,11248.3,13988.1,16356.5,29084.3,25381.0,15550.0,26996.7,14611.5,7221.8,5278.9,4275.9,2681.5,3157.5,4306.4,2824.4,2994.8,3356.0,4138.0,6674.7,10125.7,15503.2,17452.2,23566.3,22961.3,44944.4,38667.6,32190.2,28276.2,64566.5,70230.4,61043.0,41834.1,20597.2,9018.5,4739.6,4627.0,3106.5,3351.7,2762.2,2108.4],"peak":70230.4,"years":14,"autumn_shift_days_per_decade":null,"trend_years":null}},{"type":"Feature","geometry":{"type":"Point","coordinates":[127.2856,37.2076]},"properties":{"station":"RKSG","weeks":[872.4,826.3,987.8,1216.5,1059.8,619.4,891.2,1049.9,1537.3,2188.3,4427.4,3811.9,10189.7,19143.2,22858.4,31976.4,28485.3,20978.1,39798.7,20566.0,8273.0,7447.8,4108.2,1876.7,1864.0,2037.3,1868.5,2854.0,2878.7,2764.8,4423.8,8299.3,12256.3,16919.5,25290.0,20750.8,24826.8,25617.7,24732.0,23633.9,87139.3,119564.5,56317.2,31588.6,8259.7,2577.1,1633.1,1125.7,1158.1,742.0,1107.5,765.1],"peak":119564.5,"years":15,"autumn_shift_days_per_decade":null,"trend_years":null}},{"type":"Feature","geometry":{"type":"Point","coordinates":[127.9035,26.3078]},"properties":{"station":"RODN","weeks":[541.3,579.3,550.4,588.2,281.2,459.0,989.8,717.7,377.1,378.2,422.9,721.4,1181.9,1013.8,990.7,644.2,722.6,854.0,617.5,845.0,680.8,1295.4,610.1,811.4,889.5,616.2,659.0,673.2,1594.2,797.0,1064.6,2595.2,1443.4,700.7,607.3,1449.1,1931.3,2621.4,3337.4,4137.4,2790.9,1846.0,1980.0,1399.1,2683.1,3354.2,4002.3,3936.0,1873.8,799.1,798.8,676.6],"peak":4137.4,"years":9,"autumn_shift_days_per_decade":null,"trend_years":null}},{"type":"Feature","geometry":{"type":"Point","coordinates":[-66.0782,18.1157]},"properties":{"station":"TJUA","weeks":[802.0,782.5,728.5,690.7,886.7,1108.2,1103.3,913.1,797.7,787.2,676.1,815.2,843.7,730.2,954.3,900.0,881.3,897.6,850.7,779.0,813.7,935.8,948.8,839.5,964.4,898.3,920.6,1176.1,1047.7,944.7,1109.0,1262.8,1281.4,1361.3,1409.0,1471.8,1444.8,1576.5,1988.2,1816.2,1671.7,2633.9,1889.7,1344.8,1373.9,1115.8,1007.9,830.4,846.4,887.7,868.5,776.3],"peak":2633.9,"years":24,"autumn_shift_days_per_decade":3.78,"trend_years":19}}]}